{
  "type": "FeatureCollection",
  "features": [
    {
      "type": "Feature",
      "geometry": {
        "type": "LineString",
        "coordinates": [
          [
            121.48283978781194,
            31.240658332659354
          ],
          [
            121.48545694458689,
            31.249833825016374
          ],
          [
            121.50624020053604,
            31.24898336785253
          ],
          [
            121.51748061125244,
            31.249909035892006
          ],
          [
            121.53739942634297,
            31.24748437104797
          ],
          [
            121.55691267119587,
            31.250611794090418
          ]
        ]
      },
      "properties": {
        "name": "Line1 (\u5317\u7ebf)"
      }
    },
    {
      "type": "Feature",
      "geometry": {
        "type": "LineString",
        "coordinates": [
          [
            121.48492000377193,
            31.213923585494125
          ],
          [
            121.49513197432448,
            31.222650366793086
          ],
          [
            121.50707218520213,
            31.212968386322036
          ],
          [
            121.52652953152858,
            31.213761995910506
          ],
          [
            121.53900325782055,
            31.21274215028081
          ],
          [
            121.54883812418485,
            31.20553054933368
          ],
          [
            121.55963709252912,
            31.21184403691706
          ]
        ]
      },
      "properties": {
        "name": "Line2 (\u5357\u7ebf)"
      }
    },
    {
      "type": "Feature",
      "geometry": {
        "type": "LineString",
        "coordinates": [
          [
            121.54896309020414,
            31.232602650582134
          ],
          [
            121.55728808313114,
            31.224501890805914
          ]
        ]
      },
      "properties": {
        "name": "\u6362\u4e58\u8fde\u63a5"
      }
    }
  ]
}