{
  "type": "FeatureCollection",
  "features": [
    {
      "type": "Feature",
      "geometry": {
        "type": "LineString",
        "coordinates": [
          [
            121.48124770935775,
            31.233746799065326
          ],
          [
            121.49225830503288,
            31.22980847060846
          ],
          [
            121.50730342032159,
            31.226886242864925
          ],
          [
            121.51368630150695,
            31.22991264457597
          ],
          [
            121.52278986291637,
            31.229546406865662
          ],
          [
            121.53458285999109,
            31.233424057419956
          ],
          [
            121.54403081741273,
            31.22768264269498
          ],
          [
            121.55512302932216,
            31.22982673649002
          ]
        ]
      },
      "properties": {
        "name": "\u4e1c\u897f\u7ebf"
      }
    },
    {
      "type": "Feature",
      "geometry": {
        "type": "LineString",
        "coordinates": [
          [
            121.51482815100233,
            31.2002234488525
          ],
          [
            121.51581099195297,
            31.210478433306058
          ],
          [
            121.5094188550227,
            31.218216045364965
          ],
          [
            121.51368630150695,
            31.22991264457597
          ],
          [
            121.51609396871538,
            31.24308889150273
          ],
          [
            121.50980103307208,
            31.246437473312486
          ],
          [
            121.51433450616506,
            31.25255772344386
          ]
        ]
      },
      "properties": {
        "name": "\u5357\u5317\u7ebf"
      }
    }
  ]
}