{
  "type": "FeatureCollection",
  "features": [
    {
      "type": "Feature",
      "geometry": {
        "type": "LineString",
        "coordinates": [
          [
            121.4894924,
            31.2130809
          ],
          [
            121.4894899,
            31.2134939
          ]
        ]
      },
      "properties": {
        "length": 45.92418498544228
      }
    },
    {
      "type": "Feature",
      "geometry": {
        "type": "LineString",
        "coordinates": [
          [
            121.4894899,
            31.2134939
          ],
          [
            121.4894863,
            31.2140995
          ]
        ]
      },
      "properties": {
        "length": 67.34061296017703
      }
    },
    {
      "type": "Feature",
      "geometry": {
        "type": "LineString",
        "coordinates": [
          [
            121.4894863,
            31.2140995
          ],
          [
            121.4894805,
            31.2146255
          ]
        ]
      },
      "properties": {
        "length": 58.4912147162628
      }
    },
    {
      "type": "Feature",
      "geometry": {
        "type": "LineString",
        "coordinates": [
          [
            121.4894805,
            31.2146255
          ],
          [
            121.4898654,
            31.2146507
          ],
          [
            121.49008,
            31.2146647
          ],
          [
            121.4904963,
            31.2147154
          ],
          [
            121.4906919,
            31.2147558
          ],
          [
            121.4908211,
            31.2147824
          ],
          [
            121.4911357,
            31.2148453
          ],
          [
            121.491273,
            31.2148833
          ]
        ]
      },
      "properties": {
        "length": 173.38717994487797
      }
    },
    {
      "type": "Feature",
      "geometry": {
        "type": "LineString",
        "coordinates": [
          [
            121.491273,
            31.2148833
          ],
          [
            121.4912872,
            31.2150639
          ]
        ]
      },
      "properties": {
        "length": 20.12718335423467
      }
    },
    {
      "type": "Feature",
      "geometry": {
        "type": "LineString",
        "coordinates": [
          [
            121.4912872,
            31.2150639
          ],
          [
            121.4912964,
            31.2156439
          ],
          [
            121.4912978,
            31.2157925
          ]
        ]
      },
      "properties": {
        "length": 81.02320830403019
      }
    },
    {
      "type": "Feature",
      "geometry": {
        "type": "LineString",
        "coordinates": [
          [
            121.4912978,
            31.2157925
          ],
          [
            121.4912824,
            31.2161432
          ]
        ]
      },
      "properties": {
        "length": 39.02360516804831
      }
    },
    {
      "type": "Feature",
      "geometry": {
        "type": "LineString",
        "coordinates": [
          [
            121.4912824,
            31.2161432
          ],
          [
            121.4912531,
            31.2162225
          ],
          [
            121.4911903,
            31.216295
          ],
          [
            121.491146,
            31.2163876
          ],
          [
            121.4911345,
            31.2165932
          ],
          [
            121.4910851,
            31.216865
          ],
          [
            121.4910515,
            31.2169517
          ]
        ]
      },
      "properties": {
        "length": 94.03526488008282
      }
    },
    {
      "type": "Feature",
      "geometry": {
        "type": "LineString",
        "coordinates": [
          [
            121.4910515,
            31.2169517
          ],
          [
            121.4911683,
            31.2169408
          ],
          [
            121.4914499,
            31.2169121
          ],
          [
            121.4921325,
            31.2169087
          ],
          [
            121.492559,
            31.2169374
          ],
          [
            121.493074,
            31.2170486
          ],
          [
            121.4933074,
            31.2171197
          ],
          [
            121.4934602,
            31.2172356
          ],
          [
            121.4935266,
            31.2173422
          ]
        ]
      },
      "properties": {
        "length": 250.66267652677422
      }
    },
    {
      "type": "Feature",
      "geometry": {
        "type": "LineString",
        "coordinates": [
          [
            121.4935266,
            31.2173422
          ],
          [
            121.4936319,
            31.2175234
          ],
          [
            121.4937173,
            31.2177871
          ],
          [
            121.493821,
            31.2181783
          ]
        ]
      },
      "properties": {
        "length": 97.52889522565359
      }
    },
    {
      "type": "Feature",
      "geometry": {
        "type": "LineString",
        "coordinates": [
          [
            121.493821,
            31.2181783
          ],
          [
            121.4938743,
            31.2183685
          ],
          [
            121.4939274,
            31.2185553
          ],
          [
            121.4939943,
            31.2187391
          ]
        ]
      },
      "properties": {
        "length": 64.52926426502701
      }
    },
    {
      "type": "Feature",
      "geometry": {
        "type": "LineString",
        "coordinates": [
          [
            121.4939943,
            31.2187391
          ],
          [
            121.4940738,
            31.2190361
          ],
          [
            121.4941046,
            31.2192179
          ],
          [
            121.4941132,
            31.2194413
          ],
          [
            121.4941164,
            31.2199748
          ],
          [
            121.4940808,
            31.2206476
          ],
          [
            121.4940831,
            31.2208479
          ]
        ]
      },
      "properties": {
        "length": 235.64537142024326
      }
    },
    {
      "type": "Feature",
      "geometry": {
        "type": "LineString",
        "coordinates": [
          [
            121.4940831,
            31.2208479
          ],
          [
            121.4940968,
            31.2209993
          ],
          [
            121.4941553,
            31.2214599
          ],
          [
            121.4942624,
            31.2218216
          ],
          [
            121.4943787,
            31.2220853
          ]
        ]
      },
      "properties": {
        "length": 141.22987761126194
      }
    },
    {
      "type": "Feature",
      "geometry": {
        "type": "LineString",
        "coordinates": [
          [
            121.4943787,
            31.2220853
          ],
          [
            121.4944224,
            31.2221923
          ],
          [
            121.4944797,
            31.2223233
          ],
          [
            121.4945492,
            31.2225113
          ],
          [
            121.494598,
            31.2226648
          ],
          [
            121.4946153,
            31.2228513
          ]
        ]
      },
      "properties": {
        "length": 88.57035699084712
      }
    },
    {
      "type": "Feature",
      "geometry": {
        "type": "LineString",
        "coordinates": [
          [
            121.4946153,
            31.2228513
          ],
          [
            121.4946394,
            31.2231124
          ]
        ]
      },
      "properties": {
        "length": 29.12333870745434
      }
    },
    {
      "type": "Feature",
      "geometry": {
        "type": "LineString",
        "coordinates": [
          [
            121.4946394,
            31.2231124
          ],
          [
            121.4946541,
            31.2232703
          ],
          [
            121.4945426,
            31.2238139
          ],
          [
            121.4945277,
            31.2238864
          ]
        ]
      },
      "properties": {
        "length": 87.16690619160059
      }
    },
    {
      "type": "Feature",
      "geometry": {
        "type": "LineString",
        "coordinates": [
          [
            121.4945277,
            31.2238864
          ],
          [
            121.4944146,
            31.2241365
          ],
          [
            121.4943878,
            31.2241957
          ],
          [
            121.4941259,
            31.2248088
          ]
        ]
      },
      "properties": {
        "length": 109.45558461191493
      }
    },
    {
      "type": "Feature",
      "geometry": {
        "type": "LineString",
        "coordinates": [
          [
            121.4941259,
            31.2248088
          ],
          [
            121.4940282,
            31.2250829
          ],
          [
            121.4939017,
            31.2254069
          ],
          [
            121.493559,
            31.2260064
          ],
          [
            121.493354,
            31.2263839
          ],
          [
            121.4932386,
            31.2266111
          ],
          [
            121.4931625,
            31.2267385
          ],
          [
            121.4930381,
            31.226957
          ]
        ]
      },
      "properties": {
        "length": 260.79962728136974
      }
    },
    {
      "type": "Feature",
      "geometry": {
        "type": "LineString",
        "coordinates": [
          [
            121.4930381,
            31.226957
          ],
          [
            121.4929686,
            31.2270654
          ],
          [
            121.4928173,
            31.2273078
          ]
        ]
      },
      "properties": {
        "length": 44.29895874006604
      }
    },
    {
      "type": "Feature",
      "geometry": {
        "type": "LineString",
        "coordinates": [
          [
            121.4928173,
            31.2273078
          ],
          [
            121.4927771,
            31.2274055
          ],
          [
            121.4927146,
            31.2275355
          ],
          [
            121.4927051,
            31.2275583
          ],
          [
            121.4926435,
            31.2277064
          ],
          [
            121.4925493,
            31.2280244
          ],
          [
            121.492419,
            31.2283966
          ],
          [
            121.4922609,
            31.2288587
          ]
        ]
      },
      "properties": {
        "length": 180.53122448872165
      }
    },
    {
      "type": "Feature",
      "geometry": {
        "type": "LineString",
        "coordinates": [
          [
            121.4922609,
            31.2288587
          ],
          [
            121.4921377,
            31.2291713
          ],
          [
            121.4919354,
            31.2294232
          ],
          [
            121.4916822,
            31.229644
          ],
          [
            121.4914034,
            31.2298097
          ]
        ]
      },
      "properties": {
        "length": 137.32840526829122
      }
    },
    {
      "type": "Feature",
      "geometry": {
        "type": "LineString",
        "coordinates": [
          [
            121.4914034,
            31.2298097
          ],
          [
            121.4911394,
            31.2300013
          ],
          [
            121.4909323,
            31.2302228
          ],
          [
            121.4908164,
            31.2304309
          ],
          [
            121.4907088,
            31.2307049
          ],
          [
            121.4906857,
            31.2307486
          ],
          [
            121.4906635,
            31.2307768
          ],
          [
            121.4905603,
            31.2309391
          ],
          [
            121.4904632,
            31.2310384
          ],
          [
            121.4903822,
            31.2310898
          ],
          [
            121.4903262,
            31.2311169
          ]
        ]
      },
      "properties": {
        "length": 181.9831409477673
      }
    },
    {
      "type": "Feature",
      "geometry": {
        "type": "LineString",
        "coordinates": [
          [
            121.4903262,
            31.2311169
          ],
          [
            121.490314,
            31.23118
          ],
          [
            121.4902134,
            31.2312763
          ],
          [
            121.4901651,
            31.231321
          ],
          [
            121.4901531,
            31.2313842
          ],
          [
            121.490149,
            31.2314059
          ],
          [
            121.4901799,
            31.231516
          ],
          [
            121.4902515,
            31.2316773
          ]
        ]
      },
      "properties": {
        "length": 69.57521438601847
      }
    },
    {
      "type": "Feature",
      "geometry": {
        "type": "LineString",
        "coordinates": [
          [
            121.4902515,
            31.2316773
          ],
          [
            121.4905727,
            31.2318268
          ],
          [
            121.4906895,
            31.2318739
          ]
        ]
      },
      "properties": {
        "length": 47.049434213951784
      }
    },
    {
      "type": "Feature",
      "geometry": {
        "type": "LineString",
        "coordinates": [
          [
            121.4906895,
            31.2318739
          ],
          [
            121.4908979,
            31.2319726
          ]
        ]
      },
      "properties": {
        "length": 22.651102467786547
      }
    },
    {
      "type": "Feature",
      "geometry": {
        "type": "LineString",
        "coordinates": [
          [
            121.4908979,
            31.2319726
          ],
          [
            121.4906946,
            31.2321589
          ],
          [
            121.490386,
            31.2324514
          ],
          [
            121.4898641,
            31.2329513
          ],
          [
            121.4897652,
            31.2330434
          ]
        ]
      },
      "properties": {
        "length": 160.55351081242028
      }
    },
    {
      "type": "Feature",
      "geometry": {
        "type": "LineString",
        "coordinates": [
          [
            121.4897652,
            31.2330434
          ],
          [
            121.4896681,
            31.2331385
          ],
          [
            121.4888297,
            31.2339726
          ],
          [
            121.4887033,
            31.2340948
          ]
        ]
      },
      "properties": {
        "length": 154.47438735849298
      }
    },
    {
      "type": "Feature",
      "geometry": {
        "type": "LineString",
        "coordinates": [
          [
            121.4887033,
            31.2340948
          ],
          [
            121.4885358,
            31.2342344
          ],
          [
            121.4880477,
            31.2346318
          ],
          [
            121.487772,
            31.2348786
          ],
          [
            121.4877048,
            31.2349423
          ],
          [
            121.487535,
            31.235101
          ]
        ]
      },
      "properties": {
        "length": 157.72627758935676
      }
    },
    {
      "type": "Feature",
      "geometry": {
        "type": "LineString",
        "coordinates": [
          [
            121.5153553,
            31.2367395
          ],
          [
            121.5151323,
            31.236651
          ],
          [
            121.5146419,
            31.2364558
          ],
          [
            121.5140142,
            31.2362141
          ],
          [
            121.5139744,
            31.236199
          ],
          [
            121.5134352,
            31.2359949
          ],
          [
            121.5133217,
            31.2359519
          ],
          [
            121.5128312,
            31.2357565
          ],
          [
            121.512682,
            31.2356972
          ]
        ]
      },
      "properties": {
        "length": 279.3532011807433
      }
    },
    {
      "type": "Feature",
      "geometry": {
        "type": "LineString",
        "coordinates": [
          [
            121.512682,
            31.2356972
          ],
          [
            121.5127158,
            31.2355557
          ],
          [
            121.5127961,
            31.2352201
          ],
          [
            121.5128411,
            31.235032
          ],
          [
            121.5128561,
            31.2349694
          ],
          [
            121.5128701,
            31.2348982
          ]
        ]
      },
      "properties": {
        "length": 90.63149490792844
      }
    },
    {
      "type": "Feature",
      "geometry": {
        "type": "LineString",
        "coordinates": [
          [
            121.5128701,
            31.2348982
          ],
          [
            121.5129017,
            31.2347382
          ]
        ]
      },
      "properties": {
        "length": 18.04311353051664
      }
    },
    {
      "type": "Feature",
      "geometry": {
        "type": "LineString",
        "coordinates": [
          [
            121.5129017,
            31.2347382
          ],
          [
            121.5129345,
            31.2345645
          ]
        ]
      },
      "properties": {
        "length": 19.564726609097942
      }
    },
    {
      "type": "Feature",
      "geometry": {
        "type": "LineString",
        "coordinates": [
          [
            121.5129345,
            31.2345645
          ],
          [
            121.5129648,
            31.2344039
          ]
        ]
      },
      "properties": {
        "length": 18.08880832088708
      }
    },
    {
      "type": "Feature",
      "geometry": {
        "type": "LineString",
        "coordinates": [
          [
            121.5129648,
            31.2344039
          ],
          [
            121.5129883,
            31.2342795
          ],
          [
            121.5129958,
            31.2342277
          ],
          [
            121.5130618,
            31.2337842
          ],
          [
            121.5130707,
            31.2337103
          ],
          [
            121.5130983,
            31.2335201
          ],
          [
            121.5131155,
            31.2333829
          ],
          [
            121.5131336,
            31.2332761
          ],
          [
            121.5131415,
            31.2332214
          ],
          [
            121.5132193,
            31.2326839
          ]
        ]
      },
      "properties": {
        "length": 192.7957457704079
      }
    },
    {
      "type": "Feature",
      "geometry": {
        "type": "LineString",
        "coordinates": [
          [
            121.5132193,
            31.2326839
          ],
          [
            121.5132558,
            31.2324704
          ],
          [
            121.5133587,
            31.2318684
          ],
          [
            121.5134222,
            31.2314968
          ],
          [
            121.5134359,
            31.2314168
          ],
          [
            121.513455,
            31.2313007
          ],
          [
            121.5134755,
            31.2311899
          ],
          [
            121.5135155,
            31.2309577
          ],
          [
            121.5135685,
            31.23065
          ],
          [
            121.5136661,
            31.2301206
          ],
          [
            121.5136792,
            31.2300472
          ],
          [
            121.5136951,
            31.2299579
          ]
        ]
      },
      "properties": {
        "length": 306.4789226009304
      }
    },
    {
      "type": "Feature",
      "geometry": {
        "type": "LineString",
        "coordinates": [
          [
            121.5136951,
            31.2299579
          ],
          [
            121.5137955,
            31.229787
          ]
        ]
      },
      "properties": {
        "length": 21.266268445176777
      }
    },
    {
      "type": "Feature",
      "geometry": {
        "type": "LineString",
        "coordinates": [
          [
            121.5137955,
            31.229787
          ],
          [
            121.5138524,
            31.229696
          ],
          [
            121.5141014,
            31.2292975
          ],
          [
            121.5141989,
            31.2291401
          ]
        ]
      },
      "properties": {
        "length": 81.5196462887321
      }
    },
    {
      "type": "Feature",
      "geometry": {
        "type": "LineString",
        "coordinates": [
          [
            121.5141989,
            31.2291401
          ],
          [
            121.5142369,
            31.2290781
          ],
          [
            121.5145377,
            31.2285275
          ],
          [
            121.5146218,
            31.2283735
          ],
          [
            121.5147794,
            31.2281048
          ],
          [
            121.5148066,
            31.2280607
          ],
          [
            121.5148409,
            31.2280051
          ],
          [
            121.5150446,
            31.227628
          ],
          [
            121.5151784,
            31.2273495
          ],
          [
            121.5153678,
            31.2269555
          ],
          [
            121.515692,
            31.2262456
          ],
          [
            121.5158283,
            31.2259472
          ]
        ]
      },
      "properties": {
        "length": 387.61824634943537
      }
    },
    {
      "type": "Feature",
      "geometry": {
        "type": "LineString",
        "coordinates": [
          [
            121.5158283,
            31.2259472
          ],
          [
            121.5164414,
            31.2249976
          ],
          [
            121.5165457,
            31.224856
          ],
          [
            121.516686,
            31.2246518
          ],
          [
            121.5169138,
            31.2243082
          ],
          [
            121.5170977,
            31.2240016
          ],
          [
            121.517343,
            31.2235926
          ],
          [
            121.5174811,
            31.2232642
          ],
          [
            121.5174916,
            31.2232377
          ],
          [
            121.5175021,
            31.2232112
          ],
          [
            121.5179106,
            31.2221772
          ],
          [
            121.5179234,
            31.222142
          ],
          [
            121.5180086,
            31.2219075
          ],
          [
            121.5182886,
            31.2211374
          ]
        ]
      },
      "properties": {
        "length": 586.372912990031
      }
    },
    {
      "type": "Feature",
      "geometry": {
        "type": "LineString",
        "coordinates": [
          [
            121.5182886,
            31.2211374
          ],
          [
            121.5186596,
            31.2201281
          ],
          [
            121.5187055,
            31.219996
          ],
          [
            121.5187305,
            31.2197964
          ],
          [
            121.518733,
            31.2197768
          ],
          [
            121.5187592,
            31.2195831
          ],
          [
            121.5187263,
            31.218901
          ]
        ]
      },
      "properties": {
        "length": 255.07377067638748
      }
    },
    {
      "type": "Feature",
      "geometry": {
        "type": "LineString",
        "coordinates": [
          [
            121.5187263,
            31.218901
          ],
          [
            121.5186841,
            31.2182894
          ],
          [
            121.518655,
            31.2180007
          ],
          [
            121.5186502,
            31.2179527
          ],
          [
            121.518647,
            31.2178837
          ],
          [
            121.5186336,
            31.217599
          ],
          [
            121.5186313,
            31.217549
          ],
          [
            121.5185992,
            31.2169664
          ],
          [
            121.5185788,
            31.2165975
          ]
        ]
      },
      "properties": {
        "length": 256.5483954915838
      }
    },
    {
      "type": "Feature",
      "geometry": {
        "type": "LineString",
        "coordinates": [
          [
            121.5117357,
            31.2352908
          ],
          [
            121.5099156,
            31.2358942
          ],
          [
            121.5091102,
            31.2361725
          ],
          [
            121.5091005,
            31.2361758
          ],
          [
            121.5089088,
            31.2362298
          ],
          [
            121.5087095,
            31.2362744
          ]
        ]
      },
      "properties": {
        "length": 307.9606046726929
      }
    },
    {
      "type": "Feature",
      "geometry": {
        "type": "LineString",
        "coordinates": [
          [
            121.5087095,
            31.2362744
          ],
          [
            121.5084074,
            31.2363534
          ]
        ]
      },
      "properties": {
        "length": 30.035672799321883
      }
    },
    {
      "type": "Feature",
      "geometry": {
        "type": "LineString",
        "coordinates": [
          [
            121.5084074,
            31.2363534
          ],
          [
            121.5085248,
            31.2362018
          ]
        ]
      },
      "properties": {
        "length": 20.217624789951874
      }
    },
    {
      "type": "Feature",
      "geometry": {
        "type": "LineString",
        "coordinates": [
          [
            121.5085248,
            31.2362018
          ],
          [
            121.508712,
            31.2359685
          ]
        ]
      },
      "properties": {
        "length": 31.46036520798359
      }
    },
    {
      "type": "Feature",
      "geometry": {
        "type": "LineString",
        "coordinates": [
          [
            121.508712,
            31.2359685
          ],
          [
            121.5088035,
            31.2358531
          ]
        ]
      },
      "properties": {
        "length": 15.502863205537416
      }
    },
    {
      "type": "Feature",
      "geometry": {
        "type": "LineString",
        "coordinates": [
          [
            121.5088035,
            31.2358531
          ],
          [
            121.5089035,
            31.2356936
          ],
          [
            121.5092851,
            31.2351308
          ]
        ]
      },
      "properties": {
        "length": 92.4604295178593
      }
    },
    {
      "type": "Feature",
      "geometry": {
        "type": "LineString",
        "coordinates": [
          [
            121.5092851,
            31.2351308
          ],
          [
            121.508714,
            31.2349676
          ],
          [
            121.5073057,
            31.2345073
          ],
          [
            121.5072606,
            31.2344931
          ],
          [
            121.5058022,
            31.2340403
          ]
        ]
      },
      "properties": {
        "length": 352.68638763093145
      }
    },
    {
      "type": "Feature",
      "geometry": {
        "type": "LineString",
        "coordinates": [
          [
            121.5058022,
            31.2340403
          ],
          [
            121.50559,
            31.2340338
          ]
        ]
      },
      "properties": {
        "length": 20.18850738594124
      }
    },
    {
      "type": "Feature",
      "geometry": {
        "type": "LineString",
        "coordinates": [
          [
            121.50559,
            31.2340338
          ],
          [
            121.5051817,
            31.2338955
          ]
        ]
      },
      "properties": {
        "length": 41.755421595485736
      }
    },
    {
      "type": "Feature",
      "geometry": {
        "type": "LineString",
        "coordinates": [
          [
            121.5051817,
            31.2338955
          ],
          [
            121.5050221,
            31.2337877
          ],
          [
            121.5048491,
            31.2337029
          ],
          [
            121.5034184,
            31.2333265
          ],
          [
            121.5030254,
            31.2332245
          ],
          [
            121.5019344,
            31.2329751
          ],
          [
            121.501338,
            31.2328366
          ],
          [
            121.5009823,
            31.2327474
          ],
          [
            121.5005961,
            31.2326496
          ],
          [
            121.5000475,
            31.2324808
          ],
          [
            121.4995941,
            31.232314
          ],
          [
            121.4990705,
            31.2321084
          ],
          [
            121.4984798,
            31.2319335
          ],
          [
            121.4982159,
            31.2318674
          ],
          [
            121.497973,
            31.2318135
          ],
          [
            121.4976852,
            31.2317539
          ],
          [
            121.4974376,
            31.2317006
          ],
          [
            121.4971528,
            31.2316569
          ],
          [
            121.4968648,
            31.2316201
          ],
          [
            121.496561,
            31.2316035
          ],
          [
            121.4962682,
            31.2315952
          ],
          [
            121.4959476,
            31.2316076
          ],
          [
            121.4956301,
            31.2316388
          ],
          [
            121.4952969,
            31.2316791
          ],
          [
            121.4949247,
            31.2317279
          ],
          [
            121.4945973,
            31.2317618
          ],
          [
            121.4942615,
            31.2317794
          ],
          [
            121.4939032,
            31.2317897
          ],
          [
            121.4935451,
            31.2317887
          ],
          [
            121.4931709,
            31.2317692
          ],
          [
            121.4927678,
            31.2317304
          ],
          [
            121.4923115,
            31.2316771
          ],
          [
            121.4919571,
            31.2316358
          ],
          [
            121.4916172,
            31.2315931
          ],
          [
            121.4909084,
            31.2315243
          ],
          [
            121.4906453,
            31.2315014
          ],
          [
            121.4902981,
            31.2314786
          ],
          [
            121.4899508,
            31.2314593
          ],
          [
            121.4894621,
            31.2314523
          ],
          [
            121.4888556,
            31.23148
          ],
          [
            121.4881372,
            31.2314991
          ],
          [
            121.4871911,
            31.231532
          ],
          [
            121.4864835,
            31.231538
          ],
          [
            121.4860835,
            31.23153
          ]
        ]
      },
      "properties": {
        "length": 1862.3014452325506
      }
    },
    {
      "type": "Feature",
      "geometry": {
        "type": "LineString",
        "coordinates": [
          [
            121.4860835,
            31.23153
          ],
          [
            121.485454,
            31.2315195
          ],
          [
            121.4852475,
            31.231508
          ],
          [
            121.4849911,
            31.2314792
          ],
          [
            121.4845823,
            31.2314186
          ],
          [
            121.4835684,
            31.2312213
          ],
          [
            121.4827593,
            31.2309982
          ]
        ]
      },
      "properties": {
        "length": 323.27548878929605
      }
    },
    {
      "type": "Feature",
      "geometry": {
        "type": "LineString",
        "coordinates": [
          [
            121.4827593,
            31.2309982
          ],
          [
            121.4827189,
            31.2312147
          ],
          [
            121.4825373,
            31.2320954
          ]
        ]
      },
      "properties": {
        "length": 123.81832818974021
      }
    },
    {
      "type": "Feature",
      "geometry": {
        "type": "LineString",
        "coordinates": [
          [
            121.4825373,
            31.2320954
          ],
          [
            121.4824302,
            31.2325802
          ],
          [
            121.4823711,
            31.2328267
          ]
        ]
      },
      "properties": {
        "length": 82.84038008985131
      }
    },
    {
      "type": "Feature",
      "geometry": {
        "type": "LineString",
        "coordinates": [
          [
            121.4823711,
            31.2328267
          ],
          [
            121.4825308,
            31.2328262
          ],
          [
            121.4826745,
            31.2328401
          ]
        ]
      },
      "properties": {
        "length": 28.934300849754663
      }
    },
    {
      "type": "Feature",
      "geometry": {
        "type": "LineString",
        "coordinates": [
          [
            121.4826745,
            31.2328401
          ],
          [
            121.4827626,
            31.2328445
          ],
          [
            121.4828465,
            31.2328542
          ]
        ]
      },
      "properties": {
        "length": 16.440497710620896
      }
    },
    {
      "type": "Feature",
      "geometry": {
        "type": "LineString",
        "coordinates": [
          [
            121.4828465,
            31.2328542
          ],
          [
            121.4829153,
            31.2328777
          ],
          [
            121.4829831,
            31.2329163
          ],
          [
            121.4830307,
            31.2329473
          ],
          [
            121.4830825,
            31.2329864
          ],
          [
            121.483157,
            31.2330431
          ],
          [
            121.4832278,
            31.2330994
          ],
          [
            121.4833716,
            31.2332019
          ],
          [
            121.4834767,
            31.2332759
          ],
          [
            121.4835841,
            31.2333501
          ]
        ]
      },
      "properties": {
        "length": 89.59535775332417
      }
    },
    {
      "type": "Feature",
      "geometry": {
        "type": "LineString",
        "coordinates": [
          [
            121.4835841,
            31.2333501
          ],
          [
            121.4836808,
            31.2333876
          ],
          [
            121.4837802,
            31.2334157
          ],
          [
            121.4838391,
            31.2334309
          ],
          [
            121.4838912,
            31.2334444
          ],
          [
            121.4839916,
            31.2334689
          ]
        ]
      },
      "properties": {
        "length": 41.00215564695788
      }
    },
    {
      "type": "Feature",
      "geometry": {
        "type": "LineString",
        "coordinates": [
          [
            121.4839916,
            31.2334689
          ],
          [
            121.4842238,
            31.2335178
          ],
          [
            121.4844364,
            31.2335634
          ],
          [
            121.4846564,
            31.2336292
          ],
          [
            121.4848492,
            31.2336931
          ],
          [
            121.4849338,
            31.2337297
          ]
        ]
      },
      "properties": {
        "length": 94.41155099763998
      }
    },
    {
      "type": "Feature",
      "geometry": {
        "type": "LineString",
        "coordinates": [
          [
            121.4849338,
            31.2337297
          ],
          [
            121.4851578,
            31.2338455
          ],
          [
            121.4852967,
            31.2339413
          ],
          [
            121.4854945,
            31.2340763
          ],
          [
            121.4856562,
            31.234197
          ]
        ]
      },
      "properties": {
        "length": 86.32566398830318
      }
    },
    {
      "type": "Feature",
      "geometry": {
        "type": "LineString",
        "coordinates": [
          [
            121.4856562,
            31.234197
          ],
          [
            121.4857019,
            31.2342268
          ]
        ]
      },
      "properties": {
        "length": 5.464391696346921
      }
    },
    {
      "type": "Feature",
      "geometry": {
        "type": "LineString",
        "coordinates": [
          [
            121.4857019,
            31.2342268
          ],
          [
            121.485808,
            31.2343056
          ],
          [
            121.4861502,
            31.2345055
          ],
          [
            121.4863546,
            31.2346314
          ],
          [
            121.4865872,
            31.2347397
          ],
          [
            121.4867475,
            31.2348096
          ],
          [
            121.4868967,
            31.2348678
          ],
          [
            121.4870547,
            31.2349227
          ]
        ]
      },
      "properties": {
        "length": 150.8134193568083
      }
    },
    {
      "type": "Feature",
      "geometry": {
        "type": "LineString",
        "coordinates": [
          [
            121.4870547,
            31.2349227
          ],
          [
            121.4873121,
            31.2350066
          ],
          [
            121.4874383,
            31.2350569
          ]
        ]
      },
      "properties": {
        "length": 39.429047815955954
      }
    },
    {
      "type": "Feature",
      "geometry": {
        "type": "LineString",
        "coordinates": [
          [
            121.5452228,
            31.2274595
          ],
          [
            121.5451113,
            31.2274291
          ]
        ]
      },
      "properties": {
        "length": 11.12779623211561
      }
    },
    {
      "type": "Feature",
      "geometry": {
        "type": "LineString",
        "coordinates": [
          [
            121.5451113,
            31.2274291
          ],
          [
            121.5450344,
            31.2274121
          ],
          [
            121.5442493,
            31.2272312
          ],
          [
            121.544186,
            31.2272167
          ],
          [
            121.5435467,
            31.2270698
          ],
          [
            121.5426487,
            31.2268792
          ],
          [
            121.5421504,
            31.2267735
          ]
        ]
      },
      "properties": {
        "length": 290.83588929460996
      }
    },
    {
      "type": "Feature",
      "geometry": {
        "type": "LineString",
        "coordinates": [
          [
            121.5421504,
            31.2267735
          ],
          [
            121.5414351,
            31.2266266
          ],
          [
            121.5407959,
            31.2264954
          ],
          [
            121.5403014,
            31.2264015
          ],
          [
            121.5395795,
            31.2262645
          ]
        ]
      },
      "properties": {
        "length": 250.93142245060506
      }
    },
    {
      "type": "Feature",
      "geometry": {
        "type": "LineString",
        "coordinates": [
          [
            121.5395795,
            31.2262645
          ],
          [
            121.5391363,
            31.2260558
          ],
          [
            121.5387209,
            31.2257852
          ]
        ]
      },
      "properties": {
        "length": 97.76328596466125
      }
    },
    {
      "type": "Feature",
      "geometry": {
        "type": "LineString",
        "coordinates": [
          [
            121.5387209,
            31.2257852
          ],
          [
            121.5384289,
            31.2254142
          ],
          [
            121.5382745,
            31.2252141
          ],
          [
            121.5380924,
            31.2249782
          ],
          [
            121.5380466,
            31.2249129
          ],
          [
            121.537676,
            31.2243841
          ],
          [
            121.5375209,
            31.2241412
          ],
          [
            121.5372853,
            31.2237722
          ],
          [
            121.5369053,
            31.2231682
          ],
          [
            121.5368695,
            31.2231114
          ]
        ]
      },
      "properties": {
        "length": 345.79466350503225
      }
    },
    {
      "type": "Feature",
      "geometry": {
        "type": "LineString",
        "coordinates": [
          [
            121.5368695,
            31.2231114
          ],
          [
            121.5366128,
            31.2227048
          ]
        ]
      },
      "properties": {
        "length": 51.38031995878381
      }
    },
    {
      "type": "Feature",
      "geometry": {
        "type": "LineString",
        "coordinates": [
          [
            121.5366128,
            31.2227048
          ],
          [
            121.5362795,
            31.2222248
          ],
          [
            121.5361711,
            31.2220581
          ],
          [
            121.5360466,
            31.2218462
          ],
          [
            121.5358938,
            31.2215354
          ],
          [
            121.5358563,
            31.2214014
          ],
          [
            121.5358277,
            31.2212817
          ],
          [
            121.5358091,
            31.2211514
          ],
          [
            121.5358002,
            31.2209354
          ],
          [
            121.5358184,
            31.2207426
          ],
          [
            121.5358447,
            31.2205972
          ],
          [
            121.5358847,
            31.2204364
          ]
        ]
      },
      "properties": {
        "length": 270.8262950480142
      }
    },
    {
      "type": "Feature",
      "geometry": {
        "type": "LineString",
        "coordinates": [
          [
            121.5358847,
            31.2204364
          ],
          [
            121.5354558,
            31.2203209
          ],
          [
            121.5349829,
            31.2201991
          ],
          [
            121.5347947,
            31.2201395
          ],
          [
            121.5346307,
            31.2200615
          ],
          [
            121.5344867,
            31.2199651
          ],
          [
            121.53435,
            31.219835
          ],
          [
            121.5342415,
            31.219696
          ],
          [
            121.5341612,
            31.2195666
          ],
          [
            121.5339481,
            31.219083
          ],
          [
            121.5339073,
            31.2189899
          ]
        ]
      },
      "properties": {
        "length": 266.88426198997
      }
    },
    {
      "type": "Feature",
      "geometry": {
        "type": "LineString",
        "coordinates": [
          [
            121.5339073,
            31.2189899
          ],
          [
            121.5327201,
            31.2160162
          ],
          [
            121.5326796,
            31.2159149
          ]
        ]
      },
      "properties": {
        "length": 361.30690655610624
      }
    },
    {
      "type": "Feature",
      "geometry": {
        "type": "LineString",
        "coordinates": [
          [
            121.5326796,
            31.2159149
          ],
          [
            121.5315242,
            31.2162518
          ],
          [
            121.5303058,
            31.2166071
          ],
          [
            121.5302578,
            31.216611
          ]
        ]
      },
      "properties": {
        "length": 243.08514810852728
      }
    },
    {
      "type": "Feature",
      "geometry": {
        "type": "LineString",
        "coordinates": [
          [
            121.5302578,
            31.216611
          ],
          [
            121.5299891,
            31.2166395
          ]
        ]
      },
      "properties": {
        "length": 25.747951299952025
      }
    },
    {
      "type": "Feature",
      "geometry": {
        "type": "LineString",
        "coordinates": [
          [
            121.5299891,
            31.2166395
          ],
          [
            121.5298602,
            31.2166294
          ],
          [
            121.5290033,
            31.2166346
          ],
          [
            121.5287301,
            31.2166362
          ],
          [
            121.5279405,
            31.216641
          ]
        ]
      },
      "properties": {
        "length": 194.86868794215377
      }
    },
    {
      "type": "Feature",
      "geometry": {
        "type": "LineString",
        "coordinates": [
          [
            121.5279405,
            31.216641
          ],
          [
            121.5269449,
            31.2166414
          ],
          [
            121.5268177,
            31.2166414
          ],
          [
            121.5249239,
            31.2166466
          ],
          [
            121.5248366,
            31.2166501
          ]
        ]
      },
      "properties": {
        "length": 295.17717835372275
      }
    },
    {
      "type": "Feature",
      "geometry": {
        "type": "LineString",
        "coordinates": [
          [
            121.5248366,
            31.2166501
          ],
          [
            121.5246871,
            31.2166569
          ]
        ]
      },
      "properties": {
        "length": 14.23687859826388
      }
    },
    {
      "type": "Feature",
      "geometry": {
        "type": "LineString",
        "coordinates": [
          [
            121.5246871,
            31.2166569
          ],
          [
            121.5245787,
            31.2166329
          ]
        ]
      },
      "properties": {
        "length": 10.648198377936703
      }
    },
    {
      "type": "Feature",
      "geometry": {
        "type": "LineString",
        "coordinates": [
          [
            121.5245787,
            31.2166329
          ],
          [
            121.5244181,
            31.2166348
          ],
          [
            121.5235412,
            31.2166299
          ],
          [
            121.5228728,
            31.2166262
          ],
          [
            121.5213047,
            31.2166238
          ]
        ]
      },
      "properties": {
        "length": 311.3477391706417
      }
    },
    {
      "type": "Feature",
      "geometry": {
        "type": "LineString",
        "coordinates": [
          [
            121.4903582,
            31.251437
          ],
          [
            121.4903993,
            31.2510245
          ],
          [
            121.4904155,
            31.2509454
          ],
          [
            121.4904558,
            31.2508556
          ]
        ]
      },
      "properties": {
        "length": 65.65839066930349
      }
    },
    {
      "type": "Feature",
      "geometry": {
        "type": "LineString",
        "coordinates": [
          [
            121.4904558,
            31.2508556
          ],
          [
            121.4894367,
            31.2503348
          ],
          [
            121.4892488,
            31.2502287
          ]
        ]
      },
      "properties": {
        "length": 134.27280902246233
      }
    },
    {
      "type": "Feature",
      "geometry": {
        "type": "LineString",
        "coordinates": [
          [
            121.4892488,
            31.2502287
          ],
          [
            121.4892187,
            31.2502055
          ],
          [
            121.4891068,
            31.2501263
          ],
          [
            121.4890114,
            31.2500582
          ],
          [
            121.4889602,
            31.2500164
          ]
        ]
      },
      "properties": {
        "length": 36.207073148496335
      }
    },
    {
      "type": "Feature",
      "geometry": {
        "type": "LineString",
        "coordinates": [
          [
            121.4889602,
            31.2500164
          ],
          [
            121.4889086,
            31.2499697
          ]
        ]
      },
      "properties": {
        "length": 7.143266843572375
      }
    },
    {
      "type": "Feature",
      "geometry": {
        "type": "LineString",
        "coordinates": [
          [
            121.4889086,
            31.2499697
          ],
          [
            121.488622,
            31.2497883
          ],
          [
            121.4884243,
            31.2496297
          ]
        ]
      },
      "properties": {
        "length": 59.67142869111555
      }
    },
    {
      "type": "Feature",
      "geometry": {
        "type": "LineString",
        "coordinates": [
          [
            121.4884243,
            31.2496297
          ],
          [
            121.4881069,
            31.2493086
          ]
        ]
      },
      "properties": {
        "length": 46.746436048181046
      }
    },
    {
      "type": "Feature",
      "geometry": {
        "type": "LineString",
        "coordinates": [
          [
            121.4881069,
            31.2493086
          ],
          [
            121.4878479,
            31.2490218
          ],
          [
            121.4873679,
            31.2485374
          ]
        ]
      },
      "properties": {
        "length": 110.88207239451043
      }
    },
    {
      "type": "Feature",
      "geometry": {
        "type": "LineString",
        "coordinates": [
          [
            121.4873679,
            31.2485374
          ],
          [
            121.4871767,
            31.2483406
          ],
          [
            121.487114,
            31.2482702
          ],
          [
            121.4869905,
            31.2481764
          ],
          [
            121.4868212,
            31.2480647
          ]
        ]
      },
      "properties": {
        "length": 74.32024718852242
      }
    },
    {
      "type": "Feature",
      "geometry": {
        "type": "LineString",
        "coordinates": [
          [
            121.4868212,
            31.2480647
          ],
          [
            121.486749,
            31.2480301
          ],
          [
            121.4866438,
            31.2479855
          ],
          [
            121.4865422,
            31.2479536
          ],
          [
            121.4863249,
            31.2479089
          ]
        ]
      },
      "properties": {
        "length": 50.5674722476613
      }
    },
    {
      "type": "Feature",
      "geometry": {
        "type": "LineString",
        "coordinates": [
          [
            121.4863249,
            31.2479089
          ],
          [
            121.4863291,
            31.2478102
          ]
        ]
      },
      "properties": {
        "length": 10.982215083524414
      }
    },
    {
      "type": "Feature",
      "geometry": {
        "type": "LineString",
        "coordinates": [
          [
            121.4863291,
            31.2478102
          ],
          [
            121.4863199,
            31.2476224
          ],
          [
            121.486293,
            31.2474759
          ],
          [
            121.4862123,
            31.2471732
          ]
        ]
      },
      "properties": {
        "length": 71.91229688503597
      }
    },
    {
      "type": "Feature",
      "geometry": {
        "type": "LineString",
        "coordinates": [
          [
            121.4862123,
            31.2471732
          ],
          [
            121.4861696,
            31.2470404
          ]
        ]
      },
      "properties": {
        "length": 15.31448090588429
      }
    },
    {
      "type": "Feature",
      "geometry": {
        "type": "LineString",
        "coordinates": [
          [
            121.4861696,
            31.2470404
          ],
          [
            121.485991,
            31.2463224
          ],
          [
            121.4859238,
            31.2459913
          ]
        ]
      },
      "properties": {
        "length": 118.9903221374947
      }
    },
    {
      "type": "Feature",
      "geometry": {
        "type": "LineString",
        "coordinates": [
          [
            121.4859238,
            31.2459913
          ],
          [
            121.4858871,
            31.2457847
          ],
          [
            121.4855855,
            31.2448425
          ],
          [
            121.4855278,
            31.2445872
          ]
        ]
      },
      "properties": {
        "length": 160.77010184278976
      }
    },
    {
      "type": "Feature",
      "geometry": {
        "type": "LineString",
        "coordinates": [
          [
            121.4855278,
            31.2445872
          ],
          [
            121.4854733,
            31.2444669
          ],
          [
            121.4854527,
            31.2443741
          ],
          [
            121.4854425,
            31.2442807
          ],
          [
            121.4854483,
            31.2441847
          ],
          [
            121.4854996,
            31.2440793
          ]
        ]
      },
      "properties": {
        "length": 58.66216333246211
      }
    },
    {
      "type": "Feature",
      "geometry": {
        "type": "LineString",
        "coordinates": [
          [
            121.4854996,
            31.2440793
          ],
          [
            121.4855852,
            31.2439357
          ],
          [
            121.4856594,
            31.2437866
          ],
          [
            121.4857032,
            31.2436824
          ],
          [
            121.4857472,
            31.2435352
          ],
          [
            121.4857724,
            31.2434304
          ],
          [
            121.4858015,
            31.2432789
          ],
          [
            121.4858173,
            31.2431126
          ],
          [
            121.4858207,
            31.2429509
          ],
          [
            121.4858139,
            31.2427714
          ],
          [
            121.4858057,
            31.2426603
          ]
        ]
      },
      "properties": {
        "length": 162.99802108605311
      }
    },
    {
      "type": "Feature",
      "geometry": {
        "type": "LineString",
        "coordinates": [
          [
            121.4858057,
            31.2426603
          ],
          [
            121.4857696,
            31.2424471
          ],
          [
            121.4857162,
            31.2421748
          ],
          [
            121.4856705,
            31.2419482
          ],
          [
            121.4856107,
            31.241691
          ],
          [
            121.4855411,
            31.2413209
          ]
        ]
      },
      "properties": {
        "length": 151.06447971607423
      }
    },
    {
      "type": "Feature",
      "geometry": {
        "type": "LineString",
        "coordinates": [
          [
            121.4855411,
            31.2413209
          ],
          [
            121.4855249,
            31.2411914
          ],
          [
            121.4855136,
            31.241077
          ],
          [
            121.4855071,
            31.2409137
          ],
          [
            121.4855162,
            31.240717
          ],
          [
            121.4855412,
            31.2404776
          ],
          [
            121.4855674,
            31.2402902
          ],
          [
            121.485613,
            31.2399766
          ],
          [
            121.4856252,
            31.2398648
          ]
        ]
      },
      "properties": {
        "length": 162.64288092960285
      }
    },
    {
      "type": "Feature",
      "geometry": {
        "type": "LineString",
        "coordinates": [
          [
            121.4856252,
            31.2398648
          ],
          [
            121.4856403,
            31.2397444
          ],
          [
            121.4856897,
            31.2393922
          ],
          [
            121.4857412,
            31.2390228
          ],
          [
            121.4857524,
            31.2389241
          ]
        ]
      },
      "properties": {
        "length": 105.30090199224615
      }
    },
    {
      "type": "Feature",
      "geometry": {
        "type": "LineString",
        "coordinates": [
          [
            121.4857524,
            31.2389241
          ],
          [
            121.4857567,
            31.2388785
          ],
          [
            121.4857675,
            31.2387868
          ],
          [
            121.4858258,
            31.2383255
          ],
          [
            121.4858827,
            31.2379565
          ],
          [
            121.4859375,
            31.2377415
          ],
          [
            121.4859802,
            31.2376051
          ]
        ]
      },
      "properties": {
        "length": 148.48307619276716
      }
    },
    {
      "type": "Feature",
      "geometry": {
        "type": "LineString",
        "coordinates": [
          [
            121.4859802,
            31.2376051
          ],
          [
            121.4860625,
            31.2374146
          ],
          [
            121.4861298,
            31.2372947
          ],
          [
            121.4863079,
            31.2370036
          ]
        ]
      },
      "properties": {
        "length": 73.90018990091323
      }
    },
    {
      "type": "Feature",
      "geometry": {
        "type": "LineString",
        "coordinates": [
          [
            121.4863079,
            31.2370036
          ],
          [
            121.4866545,
            31.2364906
          ],
          [
            121.486706,
            31.2364184
          ]
        ]
      },
      "properties": {
        "length": 75.28093143445689
      }
    },
    {
      "type": "Feature",
      "geometry": {
        "type": "LineString",
        "coordinates": [
          [
            121.486706,
            31.2364184
          ],
          [
            121.4867782,
            31.2363062
          ],
          [
            121.4868788,
            31.2361457
          ],
          [
            121.4869565,
            31.2360088
          ],
          [
            121.4870403,
            31.2358467
          ],
          [
            121.4871251,
            31.2356662
          ],
          [
            121.4872448,
            31.2354306
          ],
          [
            121.487281,
            31.2353577
          ],
          [
            121.4873467,
            31.2352187
          ]
        ]
      },
      "properties": {
        "length": 146.7851416201804
      }
    },
    {
      "type": "Feature",
      "geometry": {
        "type": "LineString",
        "coordinates": [
          [
            121.5246651,
            31.2165851
          ],
          [
            121.5248172,
            31.2165773
          ]
        ]
      },
      "properties": {
        "length": 14.490025514991926
      }
    },
    {
      "type": "Feature",
      "geometry": {
        "type": "LineString",
        "coordinates": [
          [
            121.5248172,
            31.2165773
          ],
          [
            121.524901,
            31.2165747
          ],
          [
            121.5265775,
            31.2165719
          ],
          [
            121.5279438,
            31.2165697
          ]
        ]
      },
      "properties": {
        "length": 297.3317913365145
      }
    },
    {
      "type": "Feature",
      "geometry": {
        "type": "LineString",
        "coordinates": [
          [
            121.5279438,
            31.2165697
          ],
          [
            121.5298354,
            31.2165631
          ],
          [
            121.5299584,
            31.2165539
          ]
        ]
      },
      "properties": {
        "length": 191.62582772930966
      }
    },
    {
      "type": "Feature",
      "geometry": {
        "type": "LineString",
        "coordinates": [
          [
            121.5299584,
            31.2165539
          ],
          [
            121.5302156,
            31.2165038
          ]
        ]
      },
      "properties": {
        "length": 25.085018930960803
      }
    },
    {
      "type": "Feature",
      "geometry": {
        "type": "LineString",
        "coordinates": [
          [
            121.5302156,
            31.2165038
          ],
          [
            121.5302597,
            31.2164857
          ],
          [
            121.5316269,
            31.2160842
          ],
          [
            121.5326292,
            31.2157899
          ]
        ]
      },
      "properties": {
        "length": 242.8946483761955
      }
    },
    {
      "type": "Feature",
      "geometry": {
        "type": "LineString",
        "coordinates": [
          [
            121.5326292,
            31.2157899
          ],
          [
            121.5330922,
            31.2156516
          ],
          [
            121.5346686,
            31.2151808
          ]
        ]
      },
      "properties": {
        "length": 205.4264717607225
      }
    },
    {
      "type": "Feature",
      "geometry": {
        "type": "LineString",
        "coordinates": [
          [
            121.5346686,
            31.2151808
          ],
          [
            121.5367841,
            31.2145411
          ],
          [
            121.5369942,
            31.2144716
          ]
        ]
      },
      "properties": {
        "length": 234.8058905913369
      }
    },
    {
      "type": "Feature",
      "geometry": {
        "type": "LineString",
        "coordinates": [
          [
            121.5369942,
            31.2144716
          ],
          [
            121.5372103,
            31.2144002
          ],
          [
            121.5373181,
            31.2143686
          ]
        ]
      },
      "properties": {
        "length": 32.86792738537266
      }
    },
    {
      "type": "Feature",
      "geometry": {
        "type": "LineString",
        "coordinates": [
          [
            121.5373181,
            31.2143686
          ],
          [
            121.5374445,
            31.2143341
          ]
        ]
      },
      "properties": {
        "length": 12.617685025854243
      }
    },
    {
      "type": "Feature",
      "geometry": {
        "type": "LineString",
        "coordinates": [
          [
            121.5374445,
            31.2143341
          ],
          [
            121.5375259,
            31.2143036
          ],
          [
            121.5379519,
            31.2141881
          ]
        ]
      },
      "properties": {
        "length": 50.950061072699135
      }
    },
    {
      "type": "Feature",
      "geometry": {
        "type": "LineString",
        "coordinates": [
          [
            121.5379519,
            31.2141881
          ],
          [
            121.5392138,
            31.213846
          ],
          [
            121.5398982,
            31.2136605
          ],
          [
            121.5415449,
            31.2132137
          ]
        ]
      },
      "properties": {
        "length": 358.45608785768445
      }
    },
    {
      "type": "Feature",
      "geometry": {
        "type": "LineString",
        "coordinates": [
          [
            121.5415449,
            31.2132137
          ],
          [
            121.5420658,
            31.2130547
          ],
          [
            121.5423783,
            31.2129593
          ],
          [
            121.542421,
            31.2129463
          ],
          [
            121.5428759,
            31.2128142
          ],
          [
            121.5432793,
            31.2127041
          ],
          [
            121.5437342,
            31.2126307
          ],
          [
            121.5441891,
            31.2125793
          ],
          [
            121.5446784,
            31.2125793
          ],
          [
            121.5452363,
            31.2126086
          ],
          [
            121.5459058,
            31.2127261
          ],
          [
            121.5461024,
            31.2127825
          ],
          [
            121.5463426,
            31.2128514
          ]
        ]
      },
      "properties": {
        "length": 470.57730753761564
      }
    },
    {
      "type": "Feature",
      "geometry": {
        "type": "LineString",
        "coordinates": [
          [
            121.5463426,
            31.2128514
          ],
          [
            121.5463527,
            31.2128048
          ],
          [
            121.5463841,
            31.2126584
          ],
          [
            121.5466673,
            31.2113946
          ],
          [
            121.5467091,
            31.2112089
          ]
        ]
      },
      "properties": {
        "length": 185.93450499303185
      }
    },
    {
      "type": "Feature",
      "geometry": {
        "type": "LineString",
        "coordinates": [
          [
            121.5467091,
            31.2112089
          ],
          [
            121.5467504,
            31.211025
          ],
          [
            121.5468878,
            31.2104149
          ],
          [
            121.5469114,
            31.2103106
          ]
        ]
      },
      "properties": {
        "length": 101.72248216577407
      }
    },
    {
      "type": "Feature",
      "geometry": {
        "type": "LineString",
        "coordinates": [
          [
            121.5469114,
            31.2103106
          ],
          [
            121.5469373,
            31.2101964
          ],
          [
            121.5472358,
            31.2089498
          ],
          [
            121.5473195,
            31.2085196
          ],
          [
            121.5473728,
            31.2082856
          ]
        ]
      },
      "properties": {
        "length": 229.43072802654825
      }
    },
    {
      "type": "Feature",
      "geometry": {
        "type": "LineString",
        "coordinates": [
          [
            121.5473921,
            31.2524789
          ],
          [
            121.5488059,
            31.2516736
          ],
          [
            121.5492539,
            31.251416
          ],
          [
            121.5494988,
            31.251254
          ],
          [
            121.5496979,
            31.2511098
          ],
          [
            121.549961,
            31.2509033
          ],
          [
            121.5506069,
            31.2503854
          ],
          [
            121.5509183,
            31.2502001
          ],
          [
            121.5511243,
            31.2501194
          ],
          [
            121.5513732,
            31.250068
          ],
          [
            121.5516135,
            31.2500827
          ],
          [
            121.5517766,
            31.2501267
          ],
          [
            121.5519568,
            31.2501927
          ],
          [
            121.5521285,
            31.2502955
          ],
          [
            121.5522658,
            31.2504349
          ],
          [
            121.5524117,
            31.250589
          ],
          [
            121.5525405,
            31.2508018
          ],
          [
            121.5526263,
            31.2509999
          ],
          [
            121.5526778,
            31.2512127
          ],
          [
            121.5527121,
            31.2514695
          ],
          [
            121.5527121,
            31.2517263
          ],
          [
            121.5525808,
            31.2523274
          ],
          [
            121.5525272,
            31.2524467
          ],
          [
            121.5524718,
            31.2525775
          ],
          [
            121.5523431,
            31.252871
          ],
          [
            121.5521808,
            31.2531564
          ],
          [
            121.5515963,
            31.254001
          ],
          [
            121.5512273,
            31.2543972
          ],
          [
            121.5507724,
            31.2548521
          ],
          [
            121.5502691,
            31.2552905
          ],
          [
            121.5501511,
            31.2553913
          ]
        ]
      },
      "properties": {
        "length": 1202.7174820257412
      }
    },
    {
      "type": "Feature",
      "geometry": {
        "type": "LineString",
        "coordinates": [
          [
            121.5501511,
            31.2553913
          ],
          [
            121.5499634,
            31.2555243
          ],
          [
            121.5499593,
            31.2555255
          ]
        ]
      },
      "properties": {
        "length": 23.586358831759718
      }
    },
    {
      "type": "Feature",
      "geometry": {
        "type": "LineString",
        "coordinates": [
          [
            121.5499593,
            31.2555255
          ],
          [
            121.5497558,
            31.2556878
          ]
        ]
      },
      "properties": {
        "length": 26.455281573209092
      }
    },
    {
      "type": "Feature",
      "geometry": {
        "type": "LineString",
        "coordinates": [
          [
            121.5497558,
            31.2556878
          ],
          [
            121.5496972,
            31.2555972
          ]
        ]
      },
      "properties": {
        "length": 11.51170064177893
      }
    },
    {
      "type": "Feature",
      "geometry": {
        "type": "LineString",
        "coordinates": [
          [
            121.5496972,
            31.2555972
          ],
          [
            121.5495278,
            31.2554905
          ],
          [
            121.5478084,
            31.2535251
          ],
          [
            121.5472459,
            31.2528104
          ]
        ]
      },
      "properties": {
        "length": 388.6860426118886
      }
    },
    {
      "type": "Feature",
      "geometry": {
        "type": "LineString",
        "coordinates": [
          [
            121.5472459,
            31.2528104
          ],
          [
            121.547036,
            31.2526056
          ]
        ]
      },
      "properties": {
        "length": 30.277353514458667
      }
    },
    {
      "type": "Feature",
      "geometry": {
        "type": "LineString",
        "coordinates": [
          [
            121.547036,
            31.2526056
          ],
          [
            121.5466337,
            31.2522175
          ],
          [
            121.5458439,
            31.251443
          ]
        ]
      },
      "properties": {
        "length": 171.91337158128366
      }
    },
    {
      "type": "Feature",
      "geometry": {
        "type": "LineString",
        "coordinates": [
          [
            121.5458439,
            31.251443
          ],
          [
            121.5452616,
            31.2508923
          ],
          [
            121.5449854,
            31.250655
          ],
          [
            121.5446447,
            31.2503993
          ]
        ]
      },
      "properties": {
        "length": 162.86679268398655
      }
    },
    {
      "type": "Feature",
      "geometry": {
        "type": "LineString",
        "coordinates": [
          [
            121.5446447,
            31.2503993
          ],
          [
            121.543714,
            31.2498126
          ],
          [
            121.5433007,
            31.2495532
          ],
          [
            121.5432397,
            31.249511
          ]
        ]
      },
      "properties": {
        "length": 166.12573034510197
      }
    },
    {
      "type": "Feature",
      "geometry": {
        "type": "LineString",
        "coordinates": [
          [
            121.5432397,
            31.249511
          ],
          [
            121.5432028,
            31.2493999
          ]
        ]
      },
      "properties": {
        "length": 12.842135474525309
      }
    },
    {
      "type": "Feature",
      "geometry": {
        "type": "LineString",
        "coordinates": [
          [
            121.5432028,
            31.2493999
          ],
          [
            121.543212,
            31.2493037
          ],
          [
            121.5432569,
            31.2491997
          ],
          [
            121.5436786,
            31.248407
          ],
          [
            121.544029,
            31.2479169
          ],
          [
            121.5446859,
            31.2471132
          ]
        ]
      },
      "properties": {
        "length": 292.7867505256376
      }
    },
    {
      "type": "Feature",
      "geometry": {
        "type": "LineString",
        "coordinates": [
          [
            121.5446859,
            31.2471132
          ],
          [
            121.5463153,
            31.2451639
          ]
        ]
      },
      "properties": {
        "length": 266.41283493334464
      }
    },
    {
      "type": "Feature",
      "geometry": {
        "type": "LineString",
        "coordinates": [
          [
            121.5463153,
            31.2451639
          ],
          [
            121.5471179,
            31.2442356
          ]
        ]
      },
      "properties": {
        "length": 128.3616453486304
      }
    },
    {
      "type": "Feature",
      "geometry": {
        "type": "LineString",
        "coordinates": [
          [
            121.5471179,
            31.2442356
          ],
          [
            121.5489003,
            31.2419255
          ],
          [
            121.5489599,
            31.2418482
          ]
        ]
      },
      "properties": {
        "length": 318.0232748730859
      }
    },
    {
      "type": "Feature",
      "geometry": {
        "type": "LineString",
        "coordinates": [
          [
            121.5489599,
            31.2418482
          ],
          [
            121.5492251,
            31.2416094
          ]
        ]
      },
      "properties": {
        "length": 36.616389997414544
      }
    },
    {
      "type": "Feature",
      "geometry": {
        "type": "LineString",
        "coordinates": [
          [
            121.5492251,
            31.2416094
          ],
          [
            121.549252,
            31.2415415
          ],
          [
            121.5494016,
            31.2411645
          ],
          [
            121.549419,
            31.2411076
          ],
          [
            121.5494301,
            31.2410551
          ],
          [
            121.5494478,
            31.2409421
          ],
          [
            121.5494575,
            31.2408951
          ],
          [
            121.54954,
            31.2406907
          ],
          [
            121.549804,
            31.2401001
          ],
          [
            121.5498297,
            31.2400475
          ],
          [
            121.5498564,
            31.2399993
          ],
          [
            121.5498815,
            31.2399538
          ],
          [
            121.5499548,
            31.2397891
          ]
        ]
      },
      "properties": {
        "length": 214.50127491149607
      }
    },
    {
      "type": "Feature",
      "geometry": {
        "type": "LineString",
        "coordinates": [
          [
            121.5499548,
            31.2397891
          ],
          [
            121.5499895,
            31.2396108
          ],
          [
            121.5502228,
            31.2390126
          ],
          [
            121.550297,
            31.2387856
          ]
        ]
      },
      "properties": {
        "length": 116.4247729944501
      }
    },
    {
      "type": "Feature",
      "geometry": {
        "type": "LineString",
        "coordinates": [
          [
            121.550297,
            31.2387856
          ],
          [
            121.5503542,
            31.2386027
          ],
          [
            121.5504353,
            31.238394
          ],
          [
            121.5504588,
            31.2383417
          ],
          [
            121.5505282,
            31.2381874
          ],
          [
            121.5507039,
            31.2378345
          ],
          [
            121.5511143,
            31.2370867
          ],
          [
            121.5515413,
            31.2362499
          ]
        ]
      },
      "properties": {
        "length": 306.13659445774044
      }
    },
    {
      "type": "Feature",
      "geometry": {
        "type": "LineString",
        "coordinates": [
          [
            121.5515413,
            31.2362499
          ],
          [
            121.5522154,
            31.2349158
          ],
          [
            121.5523554,
            31.2346386
          ],
          [
            121.5524767,
            31.2343986
          ],
          [
            121.5526121,
            31.2341307
          ],
          [
            121.5526608,
            31.2340344
          ],
          [
            121.552818,
            31.2337236
          ],
          [
            121.5528993,
            31.2335643
          ],
          [
            121.5529295,
            31.233506
          ]
        ]
      },
      "properties": {
        "length": 332.432889208399
      }
    },
    {
      "type": "Feature",
      "geometry": {
        "type": "LineString",
        "coordinates": [
          [
            121.5529295,
            31.233506
          ],
          [
            121.5530549,
            31.2331751
          ]
        ]
      },
      "properties": {
        "length": 38.67798841247126
      }
    },
    {
      "type": "Feature",
      "geometry": {
        "type": "LineString",
        "coordinates": [
          [
            121.5530549,
            31.2331751
          ],
          [
            121.5530801,
            31.2330975
          ],
          [
            121.5535456,
            31.2312847
          ],
          [
            121.5536036,
            31.2310587
          ],
          [
            121.553839,
            31.230142
          ]
        ]
      },
      "properties": {
        "length": 345.42051489039744
      }
    },
    {
      "type": "Feature",
      "geometry": {
        "type": "LineString",
        "coordinates": [
          [
            121.553839,
            31.230142
          ],
          [
            121.5538584,
            31.2300657
          ]
        ]
      },
      "properties": {
        "length": 8.682390802216375
      }
    },
    {
      "type": "Feature",
      "geometry": {
        "type": "LineString",
        "coordinates": [
          [
            121.5538584,
            31.2300657
          ],
          [
            121.5540373,
            31.2293969
          ],
          [
            121.5542612,
            31.2285682
          ],
          [
            121.554366,
            31.2281805
          ],
          [
            121.5545671,
            31.2274464
          ]
        ]
      },
      "properties": {
        "length": 298.9475318266062
      }
    },
    {
      "type": "Feature",
      "geometry": {
        "type": "LineString",
        "coordinates": [
          [
            121.5545671,
            31.2274464
          ],
          [
            121.5545866,
            31.227372
          ]
        ]
      },
      "properties": {
        "length": 8.478147830709837
      }
    },
    {
      "type": "Feature",
      "geometry": {
        "type": "LineString",
        "coordinates": [
          [
            121.5545866,
            31.227372
          ],
          [
            121.5550733,
            31.2256023
          ],
          [
            121.5552695,
            31.2249735
          ],
          [
            121.5552975,
            31.2248714
          ]
        ]
      },
      "properties": {
        "length": 286.1770758233392
      }
    },
    {
      "type": "Feature",
      "geometry": {
        "type": "LineString",
        "coordinates": [
          [
            121.5552975,
            31.2248714
          ],
          [
            121.5553315,
            31.2247152
          ]
        ]
      },
      "properties": {
        "length": 17.66699939433766
      }
    },
    {
      "type": "Feature",
      "geometry": {
        "type": "LineString",
        "coordinates": [
          [
            121.5553315,
            31.2247152
          ],
          [
            121.5553426,
            31.2246351
          ],
          [
            121.5555962,
            31.2235441
          ],
          [
            121.555676,
            31.2232008
          ],
          [
            121.5557134,
            31.2230359
          ],
          [
            121.5559818,
            31.2218512
          ],
          [
            121.5560969,
            31.2213282
          ],
          [
            121.5567755,
            31.2183055
          ],
          [
            121.5569981,
            31.2173141
          ],
          [
            121.5573129,
            31.2159117
          ],
          [
            121.5573217,
            31.2158652
          ]
        ]
      },
      "properties": {
        "length": 1002.1385269688677
      }
    },
    {
      "type": "Feature",
      "geometry": {
        "type": "LineString",
        "coordinates": [
          [
            121.5573217,
            31.2158652
          ],
          [
            121.5571908,
            31.2158462
          ],
          [
            121.5562343,
            31.2156463
          ],
          [
            121.5547028,
            31.215355
          ],
          [
            121.5541451,
            31.2152218
          ],
          [
            121.5534709,
            31.2150054
          ],
          [
            121.5526814,
            31.2147769
          ]
        ]
      },
      "properties": {
        "length": 458.26971129848715
      }
    },
    {
      "type": "Feature",
      "geometry": {
        "type": "LineString",
        "coordinates": [
          [
            121.5526814,
            31.2147769
          ],
          [
            121.550541,
            31.2141612
          ],
          [
            121.5502113,
            31.2140664
          ]
        ]
      },
      "properties": {
        "length": 247.83091621416875
      }
    },
    {
      "type": "Feature",
      "geometry": {
        "type": "LineString",
        "coordinates": [
          [
            121.5502113,
            31.2140664
          ],
          [
            121.5501304,
            31.2140435
          ]
        ]
      },
      "properties": {
        "length": 8.103889999233049
      }
    },
    {
      "type": "Feature",
      "geometry": {
        "type": "LineString",
        "coordinates": [
          [
            121.5501304,
            31.2140435
          ],
          [
            121.5497038,
            31.2139264
          ],
          [
            121.5465318,
            31.2130557
          ],
          [
            121.5463117,
            31.2129953
          ]
        ]
      },
      "properties": {
        "length": 381.3992768021245
      }
    }
  ]
}