{
  "type": "FeatureCollection",
  "features": [
    {
      "type": "Feature",
      "geometry": {
        "type": "Point",
        "coordinates": [
          121.48124770935775,
          31.233746799065326
        ]
      },
      "properties": {
        "id": "S1"
      }
    },
    {
      "type": "Feature",
      "geometry": {
        "type": "Point",
        "coordinates": [
          121.49225830503288,
          31.22980847060846
        ]
      },
      "properties": {
        "id": "S2"
      }
    },
    {
      "type": "Feature",
      "geometry": {
        "type": "Point",
        "coordinates": [
          121.50730342032159,
          31.226886242864925
        ]
      },
      "properties": {
        "id": "S3"
      }
    },
    {
      "type": "Feature",
      "geometry": {
        "type": "Point",
        "coordinates": [
          121.51368630150695,
          31.22991264457597
        ]
      },
      "properties": {
        "id": "S4"
      }
    },
    {
      "type": "Feature",
      "geometry": {
        "type": "Point",
        "coordinates": [
          121.52278986291637,
          31.229546406865662
        ]
      },
      "properties": {
        "id": "S5"
      }
    },
    {
      "type": "Feature",
      "geometry": {
        "type": "Point",
        "coordinates": [
          121.53458285999109,
          31.233424057419956
        ]
      },
      "properties": {
        "id": "S6"
      }
    },
    {
      "type": "Feature",
      "geometry": {
        "type": "Point",
        "coordinates": [
          121.54403081741273,
          31.22768264269498
        ]
      },
      "properties": {
        "id": "S7"
      }
    },
    {
      "type": "Feature",
      "geometry": {
        "type": "Point",
        "coordinates": [
          121.55512302932216,
          31.22982673649002
        ]
      },
      "properties": {
        "id": "S8"
      }
    },
    {
      "type": "Feature",
      "geometry": {
        "type": "Point",
        "coordinates": [
          121.51482815100233,
          31.2002234488525
        ]
      },
      "properties": {
        "id": "S9"
      }
    },
    {
      "type": "Feature",
      "geometry": {
        "type": "Point",
        "coordinates": [
          121.51581099195297,
          31.210478433306058
        ]
      },
      "properties": {
        "id": "S10"
      }
    },
    {
      "type": "Feature",
      "geometry": {
        "type": "Point",
        "coordinates": [
          121.5094188550227,
          31.218216045364965
        ]
      },
      "properties": {
        "id": "S11"
      }
    },
    {
      "type": "Feature",
      "geometry": {
        "type": "Point",
        "coordinates": [
          121.51609396871538,
          31.24308889150273
        ]
      },
      "properties": {
        "id": "S12"
      }
    },
    {
      "type": "Feature",
      "geometry": {
        "type": "Point",
        "coordinates": [
          121.50980103307208,
          31.246437473312486
        ]
      },
      "properties": {
        "id": "S13"
      }
    },
    {
      "type": "Feature",
      "geometry": {
        "type": "Point",
        "coordinates": [
          121.51433450616506,
          31.25255772344386
        ]
      },
      "properties": {
        "id": "S14"
      }
    }
  ]
}