{
  "type": "FeatureCollection",
  "features": [
    {
      "type": "Feature",
      "geometry": {
        "type": "Point",
        "coordinates": [
          121.4792291,
          31.2391239
        ]
      },
      "properties": {
        "osm_id": 468916502,
        "name": "南京东路"
      }
    },
    {
      "type": "Feature",
      "geometry": {
        "type": "Point",
        "coordinates": [
          121.4636467,
          31.2405472
        ]
      },
      "properties": {
        "osm_id": 469787970,
        "name": "新闸路"
      }
    },
    {
      "type": "Feature",
      "geometry": {
        "type": "Point",
        "coordinates": [
          121.4339035,
          31.1950755
        ]
      },
      "properties": {
        "osm_id": 471013952,
        "name": "徐家汇"
      }
    },
    {
      "type": "Feature",
      "geometry": {
        "type": "Point",
        "coordinates": [
          121.4419408,
          31.2064527
        ]
      },
      "properties": {
        "osm_id": 471014085,
        "name": "衡山路"
      }
    },
    {
      "type": "Feature",
      "geometry": {
        "type": "Point",
        "coordinates": [
          121.4552697,
          31.2188995
        ]
      },
      "properties": {
        "osm_id": 471015395,
        "name": "陕西南路"
      }
    },
    {
      "type": "Feature",
      "geometry": {
        "type": "Point",
        "coordinates": [
          121.4693495,
          31.2249337
        ]
      },
      "properties": {
        "osm_id": 471016169,
        "name": "一大会址·黄陂南路"
      }
    },
    {
      "type": "Feature",
      "geometry": {
        "type": "Point",
        "coordinates": [
          121.5386617,
          31.2218914
        ]
      },
      "properties": {
        "osm_id": 471016943,
        "name": "上海科技馆"
      }
    },
    {
      "type": "Feature",
      "geometry": {
        "type": "Point",
        "coordinates": [
          121.4560232,
          31.2318255
        ]
      },
      "properties": {
        "osm_id": 471088265,
        "name": "南京西路"
      }
    },
    {
      "type": "Feature",
      "geometry": {
        "type": "Point",
        "coordinates": [
          121.4057154,
          31.2443442
        ]
      },
      "properties": {
        "osm_id": 622194147,
        "name": "枫桥路"
      }
    },
    {
      "type": "Feature",
      "geometry": {
        "type": "Point",
        "coordinates": [
          121.402647,
          31.2527094
        ]
      },
      "properties": {
        "osm_id": 622194318,
        "name": "真如"
      }
    },
    {
      "type": "Feature",
      "geometry": {
        "type": "Point",
        "coordinates": [
          121.5188767,
          31.1486404
        ]
      },
      "properties": {
        "osm_id": 2448270609,
        "name": "三林东"
      }
    },
    {
      "type": "Feature",
      "geometry": {
        "type": "Point",
        "coordinates": [
          121.4486885,
          31.1748452
        ]
      },
      "properties": {
        "osm_id": 2448270613,
        "name": "龙华"
      }
    },
    {
      "type": "Feature",
      "geometry": {
        "type": "Point",
        "coordinates": [
          121.4551734,
          31.1615085
        ]
      },
      "properties": {
        "osm_id": 2448270617,
        "name": "龙耀路"
      }
    },
    {
      "type": "Feature",
      "geometry": {
        "type": "Point",
        "coordinates": [
          121.5350543,
          31.1531902
        ]
      },
      "properties": {
        "osm_id": 2448270625,
        "name": "浦三路"
      }
    },
    {
      "type": "Feature",
      "geometry": {
        "type": "Point",
        "coordinates": [
          121.507929,
          31.1453958
        ]
      },
      "properties": {
        "osm_id": 2448270629,
        "name": "三林"
      }
    },
    {
      "type": "Feature",
      "geometry": {
        "type": "Point",
        "coordinates": [
          121.4367543,
          31.1812817
        ]
      },
      "properties": {
        "osm_id": 2448270633,
        "name": "上海游泳馆"
      }
    },
    {
      "type": "Feature",
      "geometry": {
        "type": "Point",
        "coordinates": [
          121.4323653,
          31.1974902
        ]
      },
      "properties": {
        "osm_id": 2448270636,
        "name": "徐家汇"
      }
    },
    {
      "type": "Feature",
      "geometry": {
        "type": "Point",
        "coordinates": [
          121.4538663,
          31.1695006
        ]
      },
      "properties": {
        "osm_id": 2448270639,
        "name": "云锦路"
      }
    },
    {
      "type": "Feature",
      "geometry": {
        "type": "Point",
        "coordinates": [
          121.4421389,
          31.2252923
        ]
      },
      "properties": {
        "osm_id": 4241260093,
        "name": "静安寺"
      }
    },
    {
      "type": "Feature",
      "geometry": {
        "type": "Point",
        "coordinates": [
          121.4115608,
          31.2200642
        ]
      },
      "properties": {
        "osm_id": 4520492425,
        "name": "中山公园"
      }
    },
    {
      "type": "Feature",
      "geometry": {
        "type": "Point",
        "coordinates": [
          121.4095153,
          31.1440689
        ]
      },
      "properties": {
        "osm_id": 4559664184,
        "name": "锦江乐园"
      }
    },
    {
      "type": "Feature",
      "geometry": {
        "type": "Point",
        "coordinates": [
          121.4464856,
          31.2151666
        ]
      },
      "properties": {
        "osm_id": 4571430228,
        "name": "常熟路"
      }
    },
    {
      "type": "Feature",
      "geometry": {
        "type": "Point",
        "coordinates": [
          121.4758296,
          31.1554593
        ]
      },
      "properties": {
        "osm_id": 5306355592,
        "name": "东方体育中心"
      }
    },
    {
      "type": "Feature",
      "geometry": {
        "type": "Point",
        "coordinates": [
          121.4890118,
          31.1630199
        ]
      },
      "properties": {
        "osm_id": 5306355593,
        "name": "杨思"
      }
    },
    {
      "type": "Feature",
      "geometry": {
        "type": "Point",
        "coordinates": [
          121.4917772,
          31.1727623
        ]
      },
      "properties": {
        "osm_id": 5306355594,
        "name": "成山路"
      }
    },
    {
      "type": "Feature",
      "geometry": {
        "type": "Point",
        "coordinates": [
          121.4814802,
          31.2138544
        ]
      },
      "properties": {
        "osm_id": 5306355596,
        "name": "陆家浜路"
      }
    },
    {
      "type": "Feature",
      "geometry": {
        "type": "Point",
        "coordinates": [
          121.4784338,
          31.2208466
        ]
      },
      "properties": {
        "osm_id": 5306355597,
        "name": "老西门"
      }
    },
    {
      "type": "Feature",
      "geometry": {
        "type": "Point",
        "coordinates": [
          121.4749289,
          31.2291468
        ]
      },
      "properties": {
        "osm_id": 5306355598,
        "name": "大世界"
      }
    },
    {
      "type": "Feature",
      "geometry": {
        "type": "Point",
        "coordinates": [
          121.4669569,
          31.244194
        ]
      },
      "properties": {
        "osm_id": 5306355599,
        "name": "曲阜路"
      }
    },
    {
      "type": "Feature",
      "geometry": {
        "type": "Point",
        "coordinates": [
          121.4643534,
          31.255078
        ]
      },
      "properties": {
        "osm_id": 5306355600,
        "name": "中兴路"
      }
    },
    {
      "type": "Feature",
      "geometry": {
        "type": "Point",
        "coordinates": [
          121.4227293,
          31.1862088
        ]
      },
      "properties": {
        "osm_id": 5306402950,
        "name": "宜山路"
      }
    },
    {
      "type": "Feature",
      "geometry": {
        "type": "Point",
        "coordinates": [
          121.456367,
          31.2046319
        ]
      },
      "properties": {
        "osm_id": 5306402951,
        "name": "嘉善路"
      }
    },
    {
      "type": "Feature",
      "geometry": {
        "type": "Point",
        "coordinates": [
          121.4640097,
          31.2082336
        ]
      },
      "properties": {
        "osm_id": 5306402952,
        "name": "打浦桥"
      }
    },
    {
      "type": "Feature",
      "geometry": {
        "type": "Point",
        "coordinates": [
          121.4720292,
          31.2112829
        ]
      },
      "properties": {
        "osm_id": 5306402955,
        "name": "马当路"
      }
    },
    {
      "type": "Feature",
      "geometry": {
        "type": "Point",
        "coordinates": [
          121.4940577,
          31.2190076
        ]
      },
      "properties": {
        "osm_id": 5306402956,
        "name": "小南门"
      }
    },
    {
      "type": "Feature",
      "geometry": {
        "type": "Point",
        "coordinates": [
          121.4079018,
          31.1983438
        ]
      },
      "properties": {
        "osm_id": 5306444957,
        "name": "宋园路"
      }
    },
    {
      "type": "Feature",
      "geometry": {
        "type": "Point",
        "coordinates": [
          121.4175044,
          31.198577
        ]
      },
      "properties": {
        "osm_id": 5306444958,
        "name": "虹桥路"
      }
    },
    {
      "type": "Feature",
      "geometry": {
        "type": "Point",
        "coordinates": [
          121.4304645,
          31.2040391
        ]
      },
      "properties": {
        "osm_id": 5306444959,
        "name": "交通大学"
      }
    },
    {
      "type": "Feature",
      "geometry": {
        "type": "Point",
        "coordinates": [
          121.4396546,
          31.2100122
        ]
      },
      "properties": {
        "osm_id": 5306444960,
        "name": "上海图书馆"
      }
    },
    {
      "type": "Feature",
      "geometry": {
        "type": "Point",
        "coordinates": [
          121.4540097,
          31.2168438
        ]
      },
      "properties": {
        "osm_id": 5306444961,
        "name": "陕西南路"
      }
    },
    {
      "type": "Feature",
      "geometry": {
        "type": "Point",
        "coordinates": [
          121.4699438,
          31.2180993
        ]
      },
      "properties": {
        "osm_id": 5306444964,
        "name": "一大会址·新天地"
      }
    },
    {
      "type": "Feature",
      "geometry": {
        "type": "Point",
        "coordinates": [
          121.4828695,
          31.2299254
        ]
      },
      "properties": {
        "osm_id": 5306444965,
        "name": "豫园"
      }
    },
    {
      "type": "Feature",
      "geometry": {
        "type": "Point",
        "coordinates": [
          121.4778075,
          31.2457501
        ]
      },
      "properties": {
        "osm_id": 5306444966,
        "name": "天潼路"
      }
    },
    {
      "type": "Feature",
      "geometry": {
        "type": "Point",
        "coordinates": [
          121.4794725,
          31.2537236
        ]
      },
      "properties": {
        "osm_id": 5306444967,
        "name": "四川北路"
      }
    },
    {
      "type": "Feature",
      "geometry": {
        "type": "Point",
        "coordinates": [
          121.4061275,
          31.1662502
        ]
      },
      "properties": {
        "osm_id": 5306464707,
        "name": "虹漕路"
      }
    },
    {
      "type": "Feature",
      "geometry": {
        "type": "Point",
        "coordinates": [
          121.4149819,
          31.1689829
        ]
      },
      "properties": {
        "osm_id": 5306464708,
        "name": "桂林公园"
      }
    },
    {
      "type": "Feature",
      "geometry": {
        "type": "Point",
        "coordinates": [
          121.4389457,
          31.1720693
        ]
      },
      "properties": {
        "osm_id": 5306464710,
        "name": "龙漕路"
      }
    },
    {
      "type": "Feature",
      "geometry": {
        "type": "Point",
        "coordinates": [
          121.4481765,
          31.176651
        ]
      },
      "properties": {
        "osm_id": 5306464711,
        "name": "龙华"
      }
    },
    {
      "type": "Feature",
      "geometry": {
        "type": "Point",
        "coordinates": [
          121.4579532,
          31.2304667
        ]
      },
      "properties": {
        "osm_id": 5306464712,
        "name": "南京西路"
      }
    },
    {
      "type": "Feature",
      "geometry": {
        "type": "Point",
        "coordinates": [
          121.4547881,
          31.2294277
        ]
      },
      "properties": {
        "osm_id": 5306464713,
        "name": "南京西路"
      }
    },
    {
      "type": "Feature",
      "geometry": {
        "type": "Point",
        "coordinates": [
          121.4939618,
          31.2521438
        ]
      },
      "properties": {
        "osm_id": 5306464714,
        "name": "国际客运中心"
      }
    },
    {
      "type": "Feature",
      "geometry": {
        "type": "Point",
        "coordinates": [
          121.4072205,
          31.2331191
        ]
      },
      "properties": {
        "osm_id": 5306477811,
        "name": "金沙江路"
      }
    },
    {
      "type": "Feature",
      "geometry": {
        "type": "Point",
        "coordinates": [
          121.4189633,
          31.2324037
        ]
      },
      "properties": {
        "osm_id": 5306477812,
        "name": "隆德路"
      }
    },
    {
      "type": "Feature",
      "geometry": {
        "type": "Point",
        "coordinates": [
          121.4260872,
          31.2363368
        ]
      },
      "properties": {
        "osm_id": 5306477813,
        "name": "武宁路"
      }
    },
    {
      "type": "Feature",
      "geometry": {
        "type": "Point",
        "coordinates": [
          121.4398643,
          31.2461078
        ]
      },
      "properties": {
        "osm_id": 5306477814,
        "name": "江宁路"
      }
    },
    {
      "type": "Feature",
      "geometry": {
        "type": "Point",
        "coordinates": [
          121.457925,
          31.2377862
        ]
      },
      "properties": {
        "osm_id": 5306477815,
        "name": "自然博物馆"
      }
    },
    {
      "type": "Feature",
      "geometry": {
        "type": "Point",
        "coordinates": [
          121.4598334,
          31.2218467
        ]
      },
      "properties": {
        "osm_id": 5306477816,
        "name": "淮海中路"
      }
    },
    {
      "type": "Feature",
      "geometry": {
        "type": "Point",
        "coordinates": [
          121.4770974,
          31.1992369
        ]
      },
      "properties": {
        "osm_id": 5306477817,
        "name": "世博会博物馆"
      }
    },
    {
      "type": "Feature",
      "geometry": {
        "type": "Point",
        "coordinates": [
          121.4908095,
          31.1507738
        ]
      },
      "properties": {
        "osm_id": 5306536045,
        "name": "灵岩南路"
      }
    },
    {
      "type": "Feature",
      "geometry": {
        "type": "Point",
        "coordinates": [
          121.5019944,
          31.1511939
        ]
      },
      "properties": {
        "osm_id": 5306536046,
        "name": "上南路"
      }
    },
    {
      "type": "Feature",
      "geometry": {
        "type": "Point",
        "coordinates": [
          121.5103152,
          31.1519915
        ]
      },
      "properties": {
        "osm_id": 5306536047,
        "name": "华夏西路"
      }
    },
    {
      "type": "Feature",
      "geometry": {
        "type": "Point",
        "coordinates": [
          121.5113016,
          31.1614947
        ]
      },
      "properties": {
        "osm_id": 5306536048,
        "name": "高青路"
      }
    },
    {
      "type": "Feature",
      "geometry": {
        "type": "Point",
        "coordinates": [
          121.5065829,
          31.1747979
        ]
      },
      "properties": {
        "osm_id": 5306536049,
        "name": "东明路"
      }
    },
    {
      "type": "Feature",
      "geometry": {
        "type": "Point",
        "coordinates": [
          121.5131584,
          31.1958017
        ]
      },
      "properties": {
        "osm_id": 5306536050,
        "name": "临沂新村"
      }
    },
    {
      "type": "Feature",
      "geometry": {
        "type": "Point",
        "coordinates": [
          121.5195474,
          31.2061476
        ]
      },
      "properties": {
        "osm_id": 5306536051,
        "name": "上海儿童医学中心"
      }
    },
    {
      "type": "Feature",
      "geometry": {
        "type": "Point",
        "coordinates": [
          121.5298954,
          31.2350364
        ]
      },
      "properties": {
        "osm_id": 5306536052,
        "name": "源深体育中心"
      }
    },
    {
      "type": "Feature",
      "geometry": {
        "type": "Point",
        "coordinates": [
          121.5402665,
          31.2383036
        ]
      },
      "properties": {
        "osm_id": 5306536053,
        "name": "民生路"
      }
    },
    {
      "type": "Feature",
      "geometry": {
        "type": "Point",
        "coordinates": [
          121.5477984,
          31.2411683
        ]
      },
      "properties": {
        "osm_id": 5306536054,
        "name": "北洋泾路"
      }
    },
    {
      "type": "Feature",
      "geometry": {
        "type": "Point",
        "coordinates": [
          121.4122228,
          31.2403031
        ]
      },
      "properties": {
        "osm_id": 5306595216,
        "name": "曹杨路"
      }
    },
    {
      "type": "Feature",
      "geometry": {
        "type": "Point",
        "coordinates": [
          121.5544198,
          31.2343994
        ]
      },
      "properties": {
        "osm_id": 5308162429,
        "name": "芳甸路"
      }
    },
    {
      "type": "Feature",
      "geometry": {
        "type": "Point",
        "coordinates": [
          121.4546929,
          31.2177863
        ]
      },
      "properties": {
        "osm_id": 5308432220,
        "name": "陕西南路"
      }
    },
    {
      "type": "Feature",
      "geometry": {
        "type": "Point",
        "coordinates": [
          121.4291103,
          31.1704329
        ]
      },
      "properties": {
        "osm_id": 5312024931,
        "name": "漕宝路"
      }
    },
    {
      "type": "Feature",
      "geometry": {
        "type": "Point",
        "coordinates": [
          121.4760043,
          31.1553732
        ]
      },
      "properties": {
        "osm_id": 5313309164,
        "name": "东方体育中心"
      }
    },
    {
      "type": "Feature",
      "geometry": {
        "type": "Point",
        "coordinates": [
          121.4760334,
          31.155447
        ]
      },
      "properties": {
        "osm_id": 5313309165,
        "name": "东方体育中心"
      }
    },
    {
      "type": "Feature",
      "geometry": {
        "type": "Point",
        "coordinates": [
          121.4672532,
          31.2444162
        ]
      },
      "properties": {
        "osm_id": 5313859997,
        "name": "曲阜路"
      }
    },
    {
      "type": "Feature",
      "geometry": {
        "type": "Point",
        "coordinates": [
          121.4801505,
          31.2402537
        ]
      },
      "properties": {
        "osm_id": 5314250339,
        "name": "南京东路"
      }
    },
    {
      "type": "Feature",
      "geometry": {
        "type": "Point",
        "coordinates": [
          121.479018,
          31.2209254
        ]
      },
      "properties": {
        "osm_id": 5314250343,
        "name": "老西门"
      }
    },
    {
      "type": "Feature",
      "geometry": {
        "type": "Point",
        "coordinates": [
          121.4811496,
          31.213813
        ]
      },
      "properties": {
        "osm_id": 5314254694,
        "name": "陆家浜路"
      }
    },
    {
      "type": "Feature",
      "geometry": {
        "type": "Point",
        "coordinates": [
          121.4717526,
          31.2116709
        ]
      },
      "properties": {
        "osm_id": 5314254695,
        "name": "马当路"
      }
    },
    {
      "type": "Feature",
      "geometry": {
        "type": "Point",
        "coordinates": [
          121.469819,
          31.2179361
        ]
      },
      "properties": {
        "osm_id": 5314264654,
        "name": "一大会址·新天地"
      }
    },
    {
      "type": "Feature",
      "geometry": {
        "type": "Point",
        "coordinates": [
          121.456395,
          31.2042741
        ]
      },
      "properties": {
        "osm_id": 5314264656,
        "name": "嘉善路"
      }
    },
    {
      "type": "Feature",
      "geometry": {
        "type": "Point",
        "coordinates": [
          121.418897,
          31.2322816
        ]
      },
      "properties": {
        "osm_id": 5314272522,
        "name": "隆德路"
      }
    },
    {
      "type": "Feature",
      "geometry": {
        "type": "Point",
        "coordinates": [
          121.4262469,
          31.2215398
        ]
      },
      "properties": {
        "osm_id": 5314272524,
        "name": "江苏路"
      }
    },
    {
      "type": "Feature",
      "geometry": {
        "type": "Point",
        "coordinates": [
          121.4306485,
          31.2041503
        ]
      },
      "properties": {
        "osm_id": 5314272527,
        "name": "交通大学"
      }
    },
    {
      "type": "Feature",
      "geometry": {
        "type": "Point",
        "coordinates": [
          121.4313608,
          31.1963162
        ]
      },
      "properties": {
        "osm_id": 5314277877,
        "name": "徐家汇"
      }
    },
    {
      "type": "Feature",
      "geometry": {
        "type": "Point",
        "coordinates": [
          121.5229001,
          31.2306936
        ]
      },
      "properties": {
        "osm_id": 5314277881,
        "name": "世纪大道"
      }
    },
    {
      "type": "Feature",
      "geometry": {
        "type": "Point",
        "coordinates": [
          121.5227053,
          31.2308055
        ]
      },
      "properties": {
        "osm_id": 5314277882,
        "name": "世纪大道"
      }
    },
    {
      "type": "Feature",
      "geometry": {
        "type": "Point",
        "coordinates": [
          121.5227522,
          31.2310106
        ]
      },
      "properties": {
        "osm_id": 5314277883,
        "name": "世纪大道"
      }
    },
    {
      "type": "Feature",
      "geometry": {
        "type": "Point",
        "coordinates": [
          121.5225108,
          31.2306941
        ]
      },
      "properties": {
        "osm_id": 5314277884,
        "name": "世纪大道"
      }
    },
    {
      "type": "Feature",
      "geometry": {
        "type": "Point",
        "coordinates": [
          121.5534538,
          31.2052208
        ]
      },
      "properties": {
        "osm_id": 9008134439,
        "name": "龙阳路"
      }
    },
    {
      "type": "Feature",
      "geometry": {
        "type": "Point",
        "coordinates": [
          121.5357325,
          31.2460058
        ]
      },
      "properties": {
        "osm_id": 9381124225,
        "name": "昌邑路"
      }
    },
    {
      "type": "Feature",
      "geometry": {
        "type": "Point",
        "coordinates": [
          121.5358083,
          31.2460556
        ]
      },
      "properties": {
        "osm_id": 9381124226,
        "name": "昌邑路"
      }
    },
    {
      "type": "Feature",
      "geometry": {
        "type": "Point",
        "coordinates": [
          121.5571091,
          31.1852344
        ]
      },
      "properties": {
        "osm_id": 9381124227,
        "name": "北中路"
      }
    },
    {
      "type": "Feature",
      "geometry": {
        "type": "Point",
        "coordinates": [
          121.5550397,
          31.193162
        ]
      },
      "properties": {
        "osm_id": 9381124228,
        "name": "芳芯路"
      }
    },
    {
      "type": "Feature",
      "geometry": {
        "type": "Point",
        "coordinates": [
          121.5467582,
          31.2232213
        ]
      },
      "properties": {
        "osm_id": 9381124229,
        "name": "迎春路"
      }
    },
    {
      "type": "Feature",
      "geometry": {
        "type": "Point",
        "coordinates": [
          121.5405786,
          31.2370638
        ]
      },
      "properties": {
        "osm_id": 9381124230,
        "name": "民生路"
      }
    },
    {
      "type": "Feature",
      "geometry": {
        "type": "Point",
        "coordinates": [
          121.5260504,
          31.2569051
        ]
      },
      "properties": {
        "osm_id": 9381127893,
        "name": "丹阳路"
      }
    },
    {
      "type": "Feature",
      "geometry": {
        "type": "Point",
        "coordinates": [
          121.4100155,
          31.2469107
        ]
      },
      "properties": {
        "osm_id": 9381856640,
        "name": "中宁路"
      }
    },
    {
      "type": "Feature",
      "geometry": {
        "type": "Point",
        "coordinates": [
          121.4019002,
          31.2524377
        ]
      },
      "properties": {
        "osm_id": 9381867506,
        "name": "真如"
      }
    },
    {
      "type": "Feature",
      "geometry": {
        "type": "Point",
        "coordinates": [
          121.41312,
          31.2411734
        ]
      },
      "properties": {
        "osm_id": 9381885715,
        "name": "曹杨路"
      }
    },
    {
      "type": "Feature",
      "geometry": {
        "type": "Point",
        "coordinates": [
          121.4170297,
          31.2416559
        ]
      },
      "properties": {
        "osm_id": 9381885716,
        "name": "曹杨路"
      }
    },
    {
      "type": "Feature",
      "geometry": {
        "type": "Point",
        "coordinates": [
          121.4264922,
          31.2347687
        ]
      },
      "properties": {
        "osm_id": 9381916526,
        "name": "武宁路"
      }
    },
    {
      "type": "Feature",
      "geometry": {
        "type": "Point",
        "coordinates": [
          121.4317639,
          31.2289
        ]
      },
      "properties": {
        "osm_id": 9381931089,
        "name": "武定路"
      }
    },
    {
      "type": "Feature",
      "geometry": {
        "type": "Point",
        "coordinates": [
          121.4842395,
          31.2314615
        ]
      },
      "properties": {
        "osm_id": 9381941590,
        "name": "豫园"
      }
    },
    {
      "type": "Feature",
      "geometry": {
        "type": "Point",
        "coordinates": [
          121.4407549,
          31.2237595
        ]
      },
      "properties": {
        "osm_id": 9381946298,
        "name": "静安寺"
      }
    },
    {
      "type": "Feature",
      "geometry": {
        "type": "Point",
        "coordinates": [
          121.4679564,
          31.2256562
        ]
      },
      "properties": {
        "osm_id": 9381954260,
        "name": "一大会址·黄陂南路"
      }
    },
    {
      "type": "Feature",
      "geometry": {
        "type": "Point",
        "coordinates": [
          121.4751877,
          31.2286365
        ]
      },
      "properties": {
        "osm_id": 9381954263,
        "name": "大世界"
      }
    },
    {
      "type": "Feature",
      "geometry": {
        "type": "Point",
        "coordinates": [
          121.4979194,
          31.2369216
        ]
      },
      "properties": {
        "osm_id": 9381985702,
        "name": "陆家嘴"
      }
    },
    {
      "type": "Feature",
      "geometry": {
        "type": "Point",
        "coordinates": [
          121.5264996,
          31.2433745
        ]
      },
      "properties": {
        "osm_id": 9382030652,
        "name": "源深路"
      }
    },
    {
      "type": "Feature",
      "geometry": {
        "type": "Point",
        "coordinates": [
          121.5149488,
          31.2424141
        ]
      },
      "properties": {
        "osm_id": 9382055039,
        "name": "浦东大道"
      }
    },
    {
      "type": "Feature",
      "geometry": {
        "type": "Point",
        "coordinates": [
          121.547042,
          31.2526656
        ]
      },
      "properties": {
        "osm_id": 9382076276,
        "name": "歇浦路"
      }
    },
    {
      "type": "Feature",
      "geometry": {
        "type": "Point",
        "coordinates": [
          121.5547025,
          31.2594736
        ]
      },
      "properties": {
        "osm_id": 9382082818,
        "name": "龙居路"
      }
    },
    {
      "type": "Feature",
      "geometry": {
        "type": "Point",
        "coordinates": [
          121.553356,
          31.2041627
        ]
      },
      "properties": {
        "osm_id": 9455756755,
        "name": "龙阳路"
      }
    },
    {
      "type": "Feature",
      "geometry": {
        "type": "Point",
        "coordinates": [
          121.5536268,
          31.2056725
        ]
      },
      "properties": {
        "osm_id": 9455756756,
        "name": "龙阳路"
      }
    },
    {
      "type": "Feature",
      "geometry": {
        "type": "Point",
        "coordinates": [
          121.5524565,
          31.2030494
        ]
      },
      "properties": {
        "osm_id": 9455756757,
        "name": "龙阳路"
      }
    },
    {
      "type": "Feature",
      "geometry": {
        "type": "Point",
        "coordinates": [
          121.4779624,
          31.2457831
        ]
      },
      "properties": {
        "osm_id": 11201862443,
        "name": "天潼路"
      }
    },
    {
      "type": "Feature",
      "geometry": {
        "type": "Point",
        "coordinates": [
          121.427011,
          31.2214433
        ]
      },
      "properties": {
        "osm_id": 11216978072,
        "name": "江苏路"
      }
    },
    {
      "type": "Feature",
      "geometry": {
        "type": "Point",
        "coordinates": [
          121.5492931,
          31.1564411
        ]
      },
      "properties": {
        "osm_id": 12210717559,
        "name": "康恒路"
      }
    },
    {
      "type": "Feature",
      "geometry": {
        "type": "Point",
        "coordinates": [
          121.5007603,
          31.2560964
        ]
      },
      "properties": {
        "osm_id": 13444650647,
        "name": "提篮桥（在建）"
      }
    },
    {
      "type": "Feature",
      "geometry": {
        "type": "Point",
        "coordinates": [
          121.507915,
          31.2377494
        ]
      },
      "properties": {
        "osm_id": 13444650648,
        "name": "浦东南路（在建）"
      }
    },
    {
      "type": "Feature",
      "geometry": {
        "type": "Point",
        "coordinates": [
          121.5105065,
          31.2330094
        ]
      },
      "properties": {
        "osm_id": 13444650649,
        "name": "商城路（在建）"
      }
    },
    {
      "type": "Feature",
      "geometry": {
        "type": "Point",
        "coordinates": [
          121.5137128,
          31.2242322
        ]
      },
      "properties": {
        "osm_id": 13444650650,
        "name": "潍坊路（在建）"
      }
    },
    {
      "type": "Feature",
      "geometry": {
        "type": "Point",
        "coordinates": [
          121.5131896,
          31.2135352
        ]
      },
      "properties": {
        "osm_id": 13444650651,
        "name": "塘桥（在建）"
      }
    },
    {
      "type": "Feature",
      "geometry": {
        "type": "Point",
        "coordinates": [
          121.5050916,
          31.1986898
        ]
      },
      "properties": {
        "osm_id": 13444650652,
        "name": "南码头路（在建）"
      }
    },
    {
      "type": "Feature",
      "geometry": {
        "type": "Point",
        "coordinates": [
          121.5015367,
          31.1930039
        ]
      },
      "properties": {
        "osm_id": 13444650653,
        "name": "华丰路（在建）"
      }
    },
    {
      "type": "Feature",
      "geometry": {
        "type": "Point",
        "coordinates": [
          121.4916911,
          31.1856591
        ]
      },
      "properties": {
        "osm_id": 13444650654,
        "name": "中华艺术宫南（在建）"
      }
    },
    {
      "type": "Feature",
      "geometry": {
        "type": "Point",
        "coordinates": [
          121.4772501,
          31.1831258
        ]
      },
      "properties": {
        "osm_id": 13444650655,
        "name": "世博大道（在建）"
      }
    },
    {
      "type": "Feature",
      "geometry": {
        "type": "Point",
        "coordinates": [
          121.4693654,
          31.1764998
        ]
      },
      "properties": {
        "osm_id": 13444650656,
        "name": "后滩（在建）"
      }
    },
    {
      "type": "Feature",
      "geometry": {
        "type": "Point",
        "coordinates": [
          121.473579,
          31.1663375
        ]
      },
      "properties": {
        "osm_id": 13444650657,
        "name": "德州路（在建）"
      }
    },
    {
      "type": "Feature",
      "geometry": {
        "type": "Point",
        "coordinates": [
          121.4767061,
          31.1582463
        ]
      },
      "properties": {
        "osm_id": 13444650658,
        "name": "东方体育中心（在建）"
      }
    },
    {
      "type": "Feature",
      "geometry": {
        "type": "Point",
        "coordinates": [
          121.4825061,
          31.1427274
        ]
      },
      "properties": {
        "osm_id": 13444650659,
        "name": "凌兆新村（在建）"
      }
    }
  ]
}