{
  "type": "FeatureCollection",
  "features": [
    {
      "type": "Feature",
      "geometry": {
        "type": "Point",
        "coordinates": [
          121.43967761517698,
          31.24315950626356
        ]
      },
      "properties": {
        "station_type": "commercial+job+population_center",
        "required": false,
        "layers": "commercial,job,population",
        "sources": "large_commercial_center,weighted_kmeans",
        "component_count": 7,
        "population_value": 178060.0,
        "job_value": 306672.05507150746,
        "transport_value": 0.0,
        "commercial_value": 150000.0,
        "total_value": 634732.0550715075,
        "covered_pop": 178060.0,
        "covered_jobs": 306672.05507150746,
        "covered_commercial": 150000.0,
        "covered_tourism": 0.0,
        "score": 634732.0550715075,
        "name": "189购物中心 / 鑫意生活广场 / 亚新生活广场 / 经纬时尚广场 / 半岛休闲广场",
        "station_id": "S001"
      }
    },
    {
      "type": "Feature",
      "geometry": {
        "type": "Point",
        "coordinates": [
          121.4255695071588,
          31.15323744265303
        ]
      },
      "properties": {
        "station_type": "job+population+transport_center",
        "required": false,
        "layers": "job,population,transport",
        "sources": "rail_hub,weighted_kmeans",
        "component_count": 3,
        "population_value": 84485.0,
        "job_value": 205150.7474297437,
        "transport_value": 260000.0,
        "commercial_value": 0.0,
        "total_value": 549635.7474297436,
        "covered_pop": 84485.0,
        "covered_jobs": 205150.7474297437,
        "covered_commercial": 0.0,
        "covered_tourism": 0.0,
        "score": 549635.7474297436,
        "name": "上海南站",
        "station_id": "S002"
      }
    },
    {
      "type": "Feature",
      "geometry": {
        "type": "Point",
        "coordinates": [
          121.41012257469616,
          31.174835261686038
        ]
      },
      "properties": {
        "station_type": "commercial+job+population_center",
        "required": false,
        "layers": "commercial,job,population",
        "sources": "large_commercial_center,weighted_kmeans",
        "component_count": 3,
        "population_value": 80511.0,
        "job_value": 364415.8481264839,
        "transport_value": 0.0,
        "commercial_value": 30000.0,
        "total_value": 474926.8481264839,
        "covered_pop": 80511.0,
        "covered_jobs": 364415.8481264839,
        "covered_commercial": 30000.0,
        "covered_tourism": 0.0,
        "score": 474926.8481264839,
        "name": "圣诺亚广场",
        "station_id": "S003"
      }
    },
    {
      "type": "Feature",
      "geometry": {
        "type": "Point",
        "coordinates": [
          121.49575109140198,
          31.243779607554945
        ]
      },
      "properties": {
        "station_type": "commercial+job_center",
        "required": false,
        "layers": "commercial,job",
        "sources": "large_commercial_center,weighted_kmeans",
        "component_count": 3,
        "population_value": 0.0,
        "job_value": 395777.2632106872,
        "transport_value": 0.0,
        "commercial_value": 60000.0,
        "total_value": 455777.2632106872,
        "covered_pop": 0.0,
        "covered_jobs": 395777.2632106872,
        "covered_commercial": 60000.0,
        "covered_tourism": 0.0,
        "score": 455777.2632106872,
        "name": "正大广场 / 白玉兰广场",
        "station_id": "S004"
      }
    },
    {
      "type": "Feature",
      "geometry": {
        "type": "Point",
        "coordinates": [
          121.46877721095018,
          31.225606329193518
        ]
      },
      "properties": {
        "station_type": "commercial+job_center",
        "required": false,
        "layers": "commercial,job",
        "sources": "large_commercial_center,weighted_kmeans",
        "component_count": 4,
        "population_value": 0.0,
        "job_value": 317749.16127553745,
        "transport_value": 0.0,
        "commercial_value": 90000.0,
        "total_value": 407749.16127553745,
        "covered_pop": 0.0,
        "covered_jobs": 317749.16127553745,
        "covered_commercial": 90000.0,
        "covered_tourism": 0.0,
        "score": 407749.16127553745,
        "name": "大上海时代广场 / 上海广场 / 锦江国际购物中心",
        "station_id": "S005"
      }
    },
    {
      "type": "Feature",
      "geometry": {
        "type": "Point",
        "coordinates": [
          121.51346426696712,
          31.223874244600502
        ]
      },
      "properties": {
        "station_type": "commercial+job+population_center",
        "required": false,
        "layers": "commercial,job,population",
        "sources": "large_commercial_center,weighted_kmeans",
        "component_count": 4,
        "population_value": 70691.0,
        "job_value": 257701.47752288874,
        "transport_value": 0.0,
        "commercial_value": 60000.0,
        "total_value": 388392.47752288874,
        "covered_pop": 70691.0,
        "covered_jobs": 257701.47752288874,
        "covered_commercial": 60000.0,
        "covered_tourism": 0.0,
        "score": 388392.47752288874,
        "name": "新梅联合广场 / 华润时代广场",
        "station_id": "S006"
      }
    },
    {
      "type": "Feature",
      "geometry": {
        "type": "Point",
        "coordinates": [
          121.49095496109314,
          31.190957012689374
        ]
      },
      "properties": {
        "station_type": "job_center",
        "required": false,
        "layers": "job",
        "sources": "weighted_kmeans",
        "component_count": 1,
        "population_value": 0.0,
        "job_value": 325443.3034826382,
        "transport_value": 0.0,
        "commercial_value": 0.0,
        "total_value": 325443.3034826382,
        "covered_pop": 0.0,
        "covered_jobs": 325443.3034826382,
        "covered_commercial": 0.0,
        "covered_tourism": 0.0,
        "score": 325443.3034826382,
        "name": "",
        "station_id": "S007"
      }
    },
    {
      "type": "Feature",
      "geometry": {
        "type": "Point",
        "coordinates": [
          121.4055989776018,
          31.217343872945577
        ]
      },
      "properties": {
        "station_type": "commercial+population_center",
        "required": false,
        "layers": "commercial,population",
        "sources": "large_commercial_center,weighted_kmeans",
        "component_count": 3,
        "population_value": 262506.0,
        "job_value": 0.0,
        "transport_value": 0.0,
        "commercial_value": 60000.0,
        "total_value": 322506.0,
        "covered_pop": 262506.0,
        "covered_jobs": 0.0,
        "covered_commercial": 60000.0,
        "covered_tourism": 0.0,
        "score": 322506.0,
        "name": "龙之梦购物中心 / 来福士广场",
        "station_id": "S008"
      }
    },
    {
      "type": "Feature",
      "geometry": {
        "type": "Point",
        "coordinates": [
          121.49350610560622,
          31.222853528788384
        ]
      },
      "properties": {
        "station_type": "commercial+population_center",
        "required": false,
        "layers": "commercial,population",
        "sources": "large_commercial_center,weighted_kmeans",
        "component_count": 4,
        "population_value": 211965.0,
        "job_value": 0.0,
        "transport_value": 0.0,
        "commercial_value": 90000.0,
        "total_value": 301965.0,
        "covered_pop": 211965.0,
        "covered_jobs": 0.0,
        "covered_commercial": 90000.0,
        "covered_tourism": 0.0,
        "score": 301965.0,
        "name": "上海城隍庙广场 / BFC 购物中心 / BFC 购物中心",
        "station_id": "S009"
      }
    },
    {
      "type": "Feature",
      "geometry": {
        "type": "Point",
        "coordinates": [
          121.45098161111112,
          31.251416244444442
        ]
      },
      "properties": {
        "station_type": "transport_center",
        "required": false,
        "layers": "transport",
        "sources": "rail_hub",
        "component_count": 1,
        "population_value": 0.0,
        "job_value": 0.0,
        "transport_value": 300000.0,
        "commercial_value": 0.0,
        "total_value": 300000.0,
        "covered_pop": 0.0,
        "covered_jobs": 0.0,
        "covered_commercial": 0.0,
        "covered_tourism": 0.0,
        "score": 300000.0,
        "name": "上海站",
        "station_id": "S010"
      }
    },
    {
      "type": "Feature",
      "geometry": {
        "type": "Point",
        "coordinates": [
          121.52978913815677,
          31.22170389560299
        ]
      },
      "properties": {
        "station_type": "job_center",
        "required": false,
        "layers": "job",
        "sources": "weighted_kmeans",
        "component_count": 1,
        "population_value": 0.0,
        "job_value": 291757.7628444141,
        "transport_value": 0.0,
        "commercial_value": 0.0,
        "total_value": 291757.7628444141,
        "covered_pop": 0.0,
        "covered_jobs": 291757.7628444141,
        "covered_commercial": 0.0,
        "covered_tourism": 0.0,
        "score": 291757.7628444141,
        "name": "",
        "station_id": "S011"
      }
    },
    {
      "type": "Feature",
      "geometry": {
        "type": "Point",
        "coordinates": [
          121.48300772033767,
          31.224200364676
        ]
      },
      "properties": {
        "station_type": "commercial+population_center",
        "required": false,
        "layers": "commercial,population",
        "sources": "large_commercial_center,weighted_kmeans",
        "component_count": 3,
        "population_value": 196253.0,
        "job_value": 0.0,
        "transport_value": 0.0,
        "commercial_value": 60000.0,
        "total_value": 256253.0,
        "covered_pop": 196253.0,
        "covered_jobs": 0.0,
        "covered_commercial": 60000.0,
        "covered_tourism": 0.0,
        "score": 256253.0,
        "name": "城隍庙第一购物中心 / 豫园鄂尔多斯广场",
        "station_id": "S012"
      }
    },
    {
      "type": "Feature",
      "geometry": {
        "type": "Point",
        "coordinates": [
          121.56254259461693,
          31.212025504022737
        ]
      },
      "properties": {
        "station_type": "job_center",
        "required": false,
        "layers": "job",
        "sources": "weighted_kmeans",
        "component_count": 1,
        "population_value": 0.0,
        "job_value": 255969.51818443384,
        "transport_value": 0.0,
        "commercial_value": 0.0,
        "total_value": 255969.51818443384,
        "covered_pop": 0.0,
        "covered_jobs": 255969.51818443384,
        "covered_commercial": 0.0,
        "covered_tourism": 0.0,
        "score": 255969.51818443384,
        "name": "",
        "station_id": "S013"
      }
    },
    {
      "type": "Feature",
      "geometry": {
        "type": "Point",
        "coordinates": [
          121.41816592055834,
          31.20478084111011
        ]
      },
      "properties": {
        "station_type": "job+population_center",
        "required": false,
        "layers": "job,population",
        "sources": "weighted_kmeans",
        "component_count": 2,
        "population_value": 89696.0,
        "job_value": 165764.18435013609,
        "transport_value": 0.0,
        "commercial_value": 0.0,
        "total_value": 255460.18435013609,
        "covered_pop": 89696.0,
        "covered_jobs": 165764.18435013609,
        "covered_commercial": 0.0,
        "covered_tourism": 0.0,
        "score": 255460.18435013609,
        "name": "",
        "station_id": "S014"
      }
    },
    {
      "type": "Feature",
      "geometry": {
        "type": "Point",
        "coordinates": [
          121.54325508345487,
          31.154436855231125
        ]
      },
      "properties": {
        "station_type": "commercial+job+population_center",
        "required": false,
        "layers": "commercial,job,population",
        "sources": "large_commercial_center,weighted_kmeans",
        "component_count": 4,
        "population_value": 26508.0,
        "job_value": 161889.60950905058,
        "transport_value": 0.0,
        "commercial_value": 60000.0,
        "total_value": 248397.60950905058,
        "covered_pop": 26508.0,
        "covered_jobs": 161889.60950905058,
        "covered_commercial": 60000.0,
        "covered_tourism": 0.0,
        "score": 248397.60950905058,
        "name": "长青企业广场 / 御桥九六广场",
        "station_id": "S015"
      }
    },
    {
      "type": "Feature",
      "geometry": {
        "type": "Point",
        "coordinates": [
          121.4476936527762,
          31.194446789138382
        ]
      },
      "properties": {
        "station_type": "commercial+job_center",
        "required": false,
        "layers": "commercial,job",
        "sources": "large_commercial_center,weighted_kmeans",
        "component_count": 2,
        "population_value": 0.0,
        "job_value": 208774.50796623967,
        "transport_value": 0.0,
        "commercial_value": 30000.0,
        "total_value": 238774.50796623967,
        "covered_pop": 0.0,
        "covered_jobs": 208774.50796623967,
        "covered_commercial": 30000.0,
        "covered_tourism": 0.0,
        "score": 238774.50796623967,
        "name": "车享汽车生活广场",
        "station_id": "S016"
      }
    },
    {
      "type": "Feature",
      "geometry": {
        "type": "Point",
        "coordinates": [
          121.4249395670189,
          31.249243505011865
        ]
      },
      "properties": {
        "station_type": "population_center",
        "required": false,
        "layers": "population",
        "sources": "weighted_kmeans",
        "component_count": 1,
        "population_value": 229598.0,
        "job_value": 0.0,
        "transport_value": 0.0,
        "commercial_value": 0.0,
        "total_value": 229598.0,
        "covered_pop": 229598.0,
        "covered_jobs": 0.0,
        "covered_commercial": 0.0,
        "covered_tourism": 0.0,
        "score": 229598.0,
        "name": "",
        "station_id": "S017"
      }
    },
    {
      "type": "Feature",
      "geometry": {
        "type": "Point",
        "coordinates": [
          121.45505897715906,
          31.167744876755624
        ]
      },
      "properties": {
        "station_type": "job_center",
        "required": false,
        "layers": "job",
        "sources": "weighted_kmeans",
        "component_count": 1,
        "population_value": 0.0,
        "job_value": 225003.45320588263,
        "transport_value": 0.0,
        "commercial_value": 0.0,
        "total_value": 225003.45320588263,
        "covered_pop": 0.0,
        "covered_jobs": 225003.45320588263,
        "covered_commercial": 0.0,
        "covered_tourism": 0.0,
        "score": 225003.45320588263,
        "name": "",
        "station_id": "S018"
      }
    },
    {
      "type": "Feature",
      "geometry": {
        "type": "Point",
        "coordinates": [
          121.55358129032257,
          31.204668051612902
        ]
      },
      "properties": {
        "station_type": "transport_center",
        "required": false,
        "layers": "transport",
        "sources": "rail_hub",
        "component_count": 1,
        "population_value": 0.0,
        "job_value": 0.0,
        "transport_value": 220000.0,
        "commercial_value": 0.0,
        "total_value": 220000.0,
        "covered_pop": 0.0,
        "covered_jobs": 0.0,
        "covered_commercial": 0.0,
        "covered_tourism": 0.0,
        "score": 220000.0,
        "name": "龙阳路",
        "station_id": "S019"
      }
    },
    {
      "type": "Feature",
      "geometry": {
        "type": "Point",
        "coordinates": [
          121.40681994046616,
          31.252703222179107
        ]
      },
      "properties": {
        "station_type": "population_center",
        "required": false,
        "layers": "population",
        "sources": "weighted_kmeans",
        "component_count": 1,
        "population_value": 216504.0,
        "job_value": 0.0,
        "transport_value": 0.0,
        "commercial_value": 0.0,
        "total_value": 216504.0,
        "covered_pop": 216504.0,
        "covered_jobs": 0.0,
        "covered_commercial": 0.0,
        "covered_tourism": 0.0,
        "score": 216504.0,
        "name": "",
        "station_id": "S020"
      }
    },
    {
      "type": "Feature",
      "geometry": {
        "type": "Point",
        "coordinates": [
          121.48246224770458,
          31.15742703250879
        ]
      },
      "properties": {
        "station_type": "job+population_center",
        "required": false,
        "layers": "job,population",
        "sources": "weighted_kmeans",
        "component_count": 2,
        "population_value": 44949.0,
        "job_value": 168755.16453952345,
        "transport_value": 0.0,
        "commercial_value": 0.0,
        "total_value": 213704.16453952345,
        "covered_pop": 44949.0,
        "covered_jobs": 168755.16453952345,
        "covered_commercial": 0.0,
        "covered_tourism": 0.0,
        "score": 213704.16453952345,
        "name": "",
        "station_id": "S021"
      }
    },
    {
      "type": "Feature",
      "geometry": {
        "type": "Point",
        "coordinates": [
          121.55112056971264,
          31.23259264846889
        ]
      },
      "properties": {
        "station_type": "commercial+job_center",
        "required": false,
        "layers": "commercial,job",
        "sources": "large_commercial_center,weighted_kmeans",
        "component_count": 3,
        "population_value": 0.0,
        "job_value": 150696.10569065303,
        "transport_value": 0.0,
        "commercial_value": 60000.0,
        "total_value": 210696.10569065303,
        "covered_pop": 0.0,
        "covered_jobs": 150696.10569065303,
        "covered_commercial": 60000.0,
        "covered_tourism": 0.0,
        "score": 210696.10569065303,
        "name": "大拇指广场 / 联洋广场",
        "station_id": "S022"
      }
    },
    {
      "type": "Feature",
      "geometry": {
        "type": "Point",
        "coordinates": [
          121.52275296665127,
          31.24699999683261
        ]
      },
      "properties": {
        "station_type": "commercial+job_center",
        "required": false,
        "layers": "commercial,job",
        "sources": "large_commercial_center,weighted_kmeans",
        "component_count": 2,
        "population_value": 0.0,
        "job_value": 168527.22018299196,
        "transport_value": 0.0,
        "commercial_value": 30000.0,
        "total_value": 198527.22018299196,
        "covered_pop": 0.0,
        "covered_jobs": 168527.22018299196,
        "covered_commercial": 30000.0,
        "covered_tourism": 0.0,
        "score": 198527.22018299196,
        "name": "裕景国际商务广场",
        "station_id": "S023"
      }
    },
    {
      "type": "Feature",
      "geometry": {
        "type": "Point",
        "coordinates": [
          121.41862773352618,
          31.23690432914562
        ]
      },
      "properties": {
        "station_type": "commercial+job_center",
        "required": false,
        "layers": "commercial,job",
        "sources": "large_commercial_center,weighted_kmeans",
        "component_count": 2,
        "population_value": 0.0,
        "job_value": 167250.9870459915,
        "transport_value": 0.0,
        "commercial_value": 30000.0,
        "total_value": 197250.9870459915,
        "covered_pop": 0.0,
        "covered_jobs": 167250.9870459915,
        "covered_commercial": 30000.0,
        "covered_tourism": 0.0,
        "score": 197250.9870459915,
        "name": "豪浦广场",
        "station_id": "S024"
      }
    },
    {
      "type": "Feature",
      "geometry": {
        "type": "Point",
        "coordinates": [
          121.46582427633116,
          31.24264112529073
        ]
      },
      "properties": {
        "station_type": "commercial+population_center",
        "required": false,
        "layers": "commercial,population",
        "sources": "large_commercial_center,weighted_kmeans",
        "component_count": 3,
        "population_value": 99783.0,
        "job_value": 0.0,
        "transport_value": 0.0,
        "commercial_value": 60000.0,
        "total_value": 159783.0,
        "covered_pop": 99783.0,
        "covered_jobs": 0.0,
        "covered_commercial": 60000.0,
        "covered_tourism": 0.0,
        "score": 159783.0,
        "name": "雅居乐国际广场 / 新金桥广场",
        "station_id": "S025"
      }
    },
    {
      "type": "Feature",
      "geometry": {
        "type": "Point",
        "coordinates": [
          121.52999306700934,
          31.1923433723342
        ]
      },
      "properties": {
        "station_type": "job_center",
        "required": false,
        "layers": "job",
        "sources": "weighted_kmeans",
        "component_count": 1,
        "population_value": 0.0,
        "job_value": 149164.39526043748,
        "transport_value": 0.0,
        "commercial_value": 0.0,
        "total_value": 149164.39526043748,
        "covered_pop": 0.0,
        "covered_jobs": 149164.39526043748,
        "covered_commercial": 0.0,
        "covered_tourism": 0.0,
        "score": 149164.39526043748,
        "name": "",
        "station_id": "S026"
      }
    },
    {
      "type": "Feature",
      "geometry": {
        "type": "Point",
        "coordinates": [
          121.45212230411246,
          31.21447415913397
        ]
      },
      "properties": {
        "station_type": "commercial+population_center",
        "required": false,
        "layers": "commercial,population",
        "sources": "large_commercial_center,weighted_kmeans",
        "component_count": 2,
        "population_value": 97590.0,
        "job_value": 0.0,
        "transport_value": 0.0,
        "commercial_value": 30000.0,
        "total_value": 127590.0,
        "covered_pop": 97590.0,
        "covered_jobs": 0.0,
        "covered_commercial": 30000.0,
        "covered_tourism": 0.0,
        "score": 127590.0,
        "name": "百盛购物中心",
        "station_id": "S027"
      }
    },
    {
      "type": "Feature",
      "geometry": {
        "type": "Point",
        "coordinates": [
          121.52877897401528,
          31.174226509126335
        ]
      },
      "properties": {
        "station_type": "commercial+population_center",
        "required": false,
        "layers": "commercial,population",
        "sources": "large_commercial_center,weighted_kmeans",
        "component_count": 2,
        "population_value": 93739.0,
        "job_value": 0.0,
        "transport_value": 0.0,
        "commercial_value": 30000.0,
        "total_value": 123739.0,
        "covered_pop": 93739.0,
        "covered_jobs": 0.0,
        "covered_commercial": 30000.0,
        "covered_tourism": 0.0,
        "score": 123739.0,
        "name": "欧亚美浦东家居广场",
        "station_id": "S028"
      }
    },
    {
      "type": "Feature",
      "geometry": {
        "type": "Point",
        "coordinates": [
          121.49272274410515,
          31.149026477756347
        ]
      },
      "properties": {
        "station_type": "population_center",
        "required": false,
        "layers": "population",
        "sources": "weighted_kmeans",
        "component_count": 1,
        "population_value": 123552.0,
        "job_value": 0.0,
        "transport_value": 0.0,
        "commercial_value": 0.0,
        "total_value": 123552.0,
        "covered_pop": 123552.0,
        "covered_jobs": 0.0,
        "covered_commercial": 0.0,
        "covered_tourism": 0.0,
        "score": 123552.0,
        "name": "",
        "station_id": "S029"
      }
    },
    {
      "type": "Feature",
      "geometry": {
        "type": "Point",
        "coordinates": [
          121.47849286666667,
          31.238097779797975
        ]
      },
      "properties": {
        "station_type": "commercial_center",
        "required": false,
        "layers": "commercial",
        "sources": "large_commercial_center",
        "component_count": 4,
        "population_value": 0.0,
        "job_value": 0.0,
        "transport_value": 0.0,
        "commercial_value": 120000.0,
        "total_value": 120000.0,
        "covered_pop": 0.0,
        "covered_jobs": 0.0,
        "covered_commercial": 120000.0,
        "covered_tourism": 0.0,
        "score": 120000.0,
        "name": "来福士广场 / 恒基名人购物中心 / 353广场 / 外滩中央广场",
        "station_id": "S030"
      }
    },
    {
      "type": "Feature",
      "geometry": {
        "type": "Point",
        "coordinates": [
          121.45249222604167,
          31.23111695967262
        ]
      },
      "properties": {
        "station_type": "commercial_center",
        "required": false,
        "layers": "commercial",
        "sources": "large_commercial_center",
        "component_count": 4,
        "population_value": 0.0,
        "job_value": 0.0,
        "transport_value": 0.0,
        "commercial_value": 120000.0,
        "total_value": 120000.0,
        "covered_pop": 0.0,
        "covered_jobs": 0.0,
        "covered_commercial": 120000.0,
        "covered_tourism": 0.0,
        "score": 120000.0,
        "name": "梅龙镇广场 / 中信富泰广场 / 818广场 / 金鹰国际购物广场",
        "station_id": "S031"
      }
    },
    {
      "type": "Feature",
      "geometry": {
        "type": "Point",
        "coordinates": [
          121.44155972306096,
          31.17888094868962
        ]
      },
      "properties": {
        "station_type": "commercial+population_center",
        "required": false,
        "layers": "commercial,population",
        "sources": "large_commercial_center,weighted_kmeans",
        "component_count": 2,
        "population_value": 84442.0,
        "job_value": 0.0,
        "transport_value": 0.0,
        "commercial_value": 30000.0,
        "total_value": 114442.0,
        "covered_pop": 84442.0,
        "covered_jobs": 0.0,
        "covered_commercial": 30000.0,
        "covered_tourism": 0.0,
        "score": 114442.0,
        "name": "全国土特产食品购物中心",
        "station_id": "S032"
      }
    },
    {
      "type": "Feature",
      "geometry": {
        "type": "Point",
        "coordinates": [
          121.48998946527813,
          31.25464037042888
        ]
      },
      "properties": {
        "station_type": "population_center",
        "required": false,
        "layers": "population",
        "sources": "weighted_kmeans",
        "component_count": 1,
        "population_value": 109914.0,
        "job_value": 0.0,
        "transport_value": 0.0,
        "commercial_value": 0.0,
        "total_value": 109914.0,
        "covered_pop": 109914.0,
        "covered_jobs": 0.0,
        "covered_commercial": 0.0,
        "covered_tourism": 0.0,
        "score": 109914.0,
        "name": "",
        "station_id": "S033"
      }
    },
    {
      "type": "Feature",
      "geometry": {
        "type": "Point",
        "coordinates": [
          121.46676612876975,
          31.205621131408616
        ]
      },
      "properties": {
        "station_type": "commercial+population_center",
        "required": false,
        "layers": "commercial,population",
        "sources": "large_commercial_center,weighted_kmeans",
        "component_count": 2,
        "population_value": 76912.0,
        "job_value": 0.0,
        "transport_value": 0.0,
        "commercial_value": 30000.0,
        "total_value": 106912.0,
        "covered_pop": 76912.0,
        "covered_jobs": 0.0,
        "covered_commercial": 30000.0,
        "covered_tourism": 0.0,
        "score": 106912.0,
        "name": "东汇广场",
        "station_id": "S034"
      }
    },
    {
      "type": "Feature",
      "geometry": {
        "type": "Point",
        "coordinates": [
          121.50832844239798,
          31.236425990513744
        ]
      },
      "properties": {
        "station_type": "commercial+population_center",
        "required": false,
        "layers": "commercial,population",
        "sources": "large_commercial_center,weighted_kmeans",
        "component_count": 2,
        "population_value": 68981.0,
        "job_value": 0.0,
        "transport_value": 0.0,
        "commercial_value": 30000.0,
        "total_value": 98981.0,
        "covered_pop": 68981.0,
        "covered_jobs": 0.0,
        "covered_commercial": 30000.0,
        "covered_tourism": 0.0,
        "score": 98981.0,
        "name": "自由贸易试验区览海国际广场",
        "station_id": "S035"
      }
    },
    {
      "type": "Feature",
      "geometry": {
        "type": "Point",
        "coordinates": [
          121.5128954739935,
          31.196085264367575
        ]
      },
      "properties": {
        "station_type": "commercial+population_center",
        "required": false,
        "layers": "commercial,population",
        "sources": "large_commercial_center,weighted_kmeans",
        "component_count": 2,
        "population_value": 63904.0,
        "job_value": 0.0,
        "transport_value": 0.0,
        "commercial_value": 30000.0,
        "total_value": 93904.0,
        "covered_pop": 63904.0,
        "covered_jobs": 0.0,
        "covered_commercial": 30000.0,
        "covered_tourism": 0.0,
        "score": 93904.0,
        "name": "百联临沂购物中心",
        "station_id": "S036"
      }
    },
    {
      "type": "Feature",
      "geometry": {
        "type": "Point",
        "coordinates": [
          121.50174120832637,
          31.176573222900217
        ]
      },
      "properties": {
        "station_type": "population_center",
        "required": false,
        "layers": "population",
        "sources": "weighted_kmeans",
        "component_count": 1,
        "population_value": 93226.0,
        "job_value": 0.0,
        "transport_value": 0.0,
        "commercial_value": 0.0,
        "total_value": 93226.0,
        "covered_pop": 93226.0,
        "covered_jobs": 0.0,
        "covered_commercial": 0.0,
        "covered_tourism": 0.0,
        "score": 93226.0,
        "name": "",
        "station_id": "S037"
      }
    },
    {
      "type": "Feature",
      "geometry": {
        "type": "Point",
        "coordinates": [
          121.54886782442344,
          31.185909651794887
        ]
      },
      "properties": {
        "station_type": "commercial+population_center",
        "required": false,
        "layers": "commercial,population",
        "sources": "large_commercial_center,weighted_kmeans",
        "component_count": 2,
        "population_value": 59049.0,
        "job_value": 0.0,
        "transport_value": 0.0,
        "commercial_value": 30000.0,
        "total_value": 89049.0,
        "covered_pop": 59049.0,
        "covered_jobs": 0.0,
        "covered_commercial": 30000.0,
        "covered_tourism": 0.0,
        "score": 89049.0,
        "name": "北蔡休闲广场",
        "station_id": "S038"
      }
    },
    {
      "type": "Feature",
      "geometry": {
        "type": "Point",
        "coordinates": [
          121.42717416279116,
          31.229589278959725
        ]
      },
      "properties": {
        "station_type": "population_center",
        "required": false,
        "layers": "population",
        "sources": "weighted_kmeans",
        "component_count": 1,
        "population_value": 82028.0,
        "job_value": 0.0,
        "transport_value": 0.0,
        "commercial_value": 0.0,
        "total_value": 82028.0,
        "covered_pop": 82028.0,
        "covered_jobs": 0.0,
        "covered_commercial": 0.0,
        "covered_tourism": 0.0,
        "score": 82028.0,
        "name": "",
        "station_id": "S039"
      }
    },
    {
      "type": "Feature",
      "geometry": {
        "type": "Point",
        "coordinates": [
          121.52442019964735,
          31.233909805722284
        ]
      },
      "properties": {
        "station_type": "commercial+population_center",
        "required": false,
        "layers": "commercial,population",
        "sources": "large_commercial_center,weighted_kmeans",
        "component_count": 2,
        "population_value": 46596.0,
        "job_value": 0.0,
        "transport_value": 0.0,
        "commercial_value": 30000.0,
        "total_value": 76596.0,
        "covered_pop": 46596.0,
        "covered_jobs": 0.0,
        "covered_commercial": 30000.0,
        "covered_tourism": 0.0,
        "score": 76596.0,
        "name": "世纪汇广场",
        "station_id": "S040"
      }
    },
    {
      "type": "Feature",
      "geometry": {
        "type": "Point",
        "coordinates": [
          121.52115181209655,
          31.150934903888075
        ]
      },
      "properties": {
        "station_type": "population_center",
        "required": false,
        "layers": "population",
        "sources": "weighted_kmeans",
        "component_count": 1,
        "population_value": 70363.0,
        "job_value": 0.0,
        "transport_value": 0.0,
        "commercial_value": 0.0,
        "total_value": 70363.0,
        "covered_pop": 70363.0,
        "covered_jobs": 0.0,
        "covered_commercial": 0.0,
        "covered_tourism": 0.0,
        "score": 70363.0,
        "name": "",
        "station_id": "S041"
      }
    },
    {
      "type": "Feature",
      "geometry": {
        "type": "Point",
        "coordinates": [
          121.437725525,
          31.189732175
        ]
      },
      "properties": {
        "station_type": "commercial_center",
        "required": false,
        "layers": "commercial",
        "sources": "large_commercial_center",
        "component_count": 2,
        "population_value": 0.0,
        "job_value": 0.0,
        "transport_value": 0.0,
        "commercial_value": 60000.0,
        "total_value": 60000.0,
        "covered_pop": 0.0,
        "covered_jobs": 0.0,
        "covered_commercial": 60000.0,
        "covered_tourism": 0.0,
        "score": 60000.0,
        "name": "腾飞广场 / 腾飞广场",
        "station_id": "S042"
      }
    },
    {
      "type": "Feature",
      "geometry": {
        "type": "Point",
        "coordinates": [
          121.42651585,
          31.172583222500002
        ]
      },
      "properties": {
        "station_type": "commercial_center",
        "required": false,
        "layers": "commercial",
        "sources": "large_commercial_center",
        "component_count": 2,
        "population_value": 0.0,
        "job_value": 0.0,
        "transport_value": 0.0,
        "commercial_value": 60000.0,
        "total_value": 60000.0,
        "covered_pop": 0.0,
        "covered_jobs": 0.0,
        "covered_commercial": 60000.0,
        "covered_tourism": 0.0,
        "score": 60000.0,
        "name": "汇阳广场 / 光大生活广场",
        "station_id": "S043"
      }
    },
    {
      "type": "Feature",
      "geometry": {
        "type": "Point",
        "coordinates": [
          121.54767782437511,
          31.214211670121035
        ]
      },
      "properties": {
        "station_type": "population_center",
        "required": false,
        "layers": "population",
        "sources": "weighted_kmeans",
        "component_count": 1,
        "population_value": 52204.0,
        "job_value": 0.0,
        "transport_value": 0.0,
        "commercial_value": 0.0,
        "total_value": 52204.0,
        "covered_pop": 52204.0,
        "covered_jobs": 0.0,
        "covered_commercial": 0.0,
        "covered_tourism": 0.0,
        "score": 52204.0,
        "name": "",
        "station_id": "S044"
      }
    },
    {
      "type": "Feature",
      "geometry": {
        "type": "Point",
        "coordinates": [
          121.44733987618041,
          31.15504080178959
        ]
      },
      "properties": {
        "station_type": "population_center",
        "required": false,
        "layers": "population",
        "sources": "weighted_kmeans",
        "component_count": 1,
        "population_value": 44256.0,
        "job_value": 0.0,
        "transport_value": 0.0,
        "commercial_value": 0.0,
        "total_value": 44256.0,
        "covered_pop": 44256.0,
        "covered_jobs": 0.0,
        "covered_commercial": 0.0,
        "covered_tourism": 0.0,
        "score": 44256.0,
        "name": "",
        "station_id": "S045"
      }
    },
    {
      "type": "Feature",
      "geometry": {
        "type": "Point",
        "coordinates": [
          121.55404692467394,
          31.247518294784133
        ]
      },
      "properties": {
        "station_type": "population_center",
        "required": false,
        "layers": "population",
        "sources": "weighted_kmeans",
        "component_count": 1,
        "population_value": 41735.0,
        "job_value": 0.0,
        "transport_value": 0.0,
        "commercial_value": 0.0,
        "total_value": 41735.0,
        "covered_pop": 41735.0,
        "covered_jobs": 0.0,
        "covered_commercial": 0.0,
        "covered_tourism": 0.0,
        "score": 41735.0,
        "name": "",
        "station_id": "S046"
      }
    },
    {
      "type": "Feature",
      "geometry": {
        "type": "Point",
        "coordinates": [
          121.4325097,
          31.1992442
        ]
      },
      "properties": {
        "station_type": "commercial_center",
        "required": false,
        "layers": "commercial",
        "sources": "large_commercial_center",
        "component_count": 1,
        "population_value": 0.0,
        "job_value": 0.0,
        "transport_value": 0.0,
        "commercial_value": 30000.0,
        "total_value": 30000.0,
        "covered_pop": 0.0,
        "covered_jobs": 0.0,
        "covered_commercial": 30000.0,
        "covered_tourism": 0.0,
        "score": 30000.0,
        "name": "百联徐汇商业广场",
        "station_id": "S047"
      }
    },
    {
      "type": "Feature",
      "geometry": {
        "type": "Point",
        "coordinates": [
          121.44164458750001,
          31.225681275
        ]
      },
      "properties": {
        "station_type": "commercial_center",
        "required": false,
        "layers": "commercial",
        "sources": "large_commercial_center",
        "component_count": 1,
        "population_value": 0.0,
        "job_value": 0.0,
        "transport_value": 0.0,
        "commercial_value": 30000.0,
        "total_value": 30000.0,
        "covered_pop": 0.0,
        "covered_jobs": 0.0,
        "covered_commercial": 30000.0,
        "covered_tourism": 0.0,
        "score": 30000.0,
        "name": "久百城市广场",
        "station_id": "S048"
      }
    },
    {
      "type": "Feature",
      "geometry": {
        "type": "Point",
        "coordinates": [
          121.559418775,
          31.15579745
        ]
      },
      "properties": {
        "station_type": "commercial_center",
        "required": false,
        "layers": "commercial",
        "sources": "large_commercial_center",
        "component_count": 1,
        "population_value": 0.0,
        "job_value": 0.0,
        "transport_value": 0.0,
        "commercial_value": 30000.0,
        "total_value": 30000.0,
        "covered_pop": 0.0,
        "covered_jobs": 0.0,
        "covered_commercial": 30000.0,
        "covered_tourism": 0.0,
        "score": 30000.0,
        "name": "百联东郊购物中心",
        "station_id": "S049"
      }
    },
    {
      "type": "Feature",
      "geometry": {
        "type": "Point",
        "coordinates": [
          121.50886700000001,
          31.14310973
        ]
      },
      "properties": {
        "station_type": "commercial_center",
        "required": false,
        "layers": "commercial",
        "sources": "large_commercial_center",
        "component_count": 1,
        "population_value": 0.0,
        "job_value": 0.0,
        "transport_value": 0.0,
        "commercial_value": 30000.0,
        "total_value": 30000.0,
        "covered_pop": 0.0,
        "covered_jobs": 0.0,
        "covered_commercial": 30000.0,
        "covered_tourism": 0.0,
        "score": 30000.0,
        "name": "中房金谊广场",
        "station_id": "S050"
      }
    },
    {
      "type": "Feature",
      "geometry": {
        "type": "Point",
        "coordinates": [
          121.5411844125,
          31.2064825875
        ]
      },
      "properties": {
        "station_type": "commercial_center",
        "required": false,
        "layers": "commercial",
        "sources": "large_commercial_center",
        "component_count": 1,
        "population_value": 0.0,
        "job_value": 0.0,
        "transport_value": 0.0,
        "commercial_value": 30000.0,
        "total_value": 30000.0,
        "covered_pop": 0.0,
        "covered_jobs": 0.0,
        "covered_commercial": 30000.0,
        "covered_tourism": 0.0,
        "score": 30000.0,
        "name": "富荟广场",
        "station_id": "S051"
      }
    },
    {
      "type": "Feature",
      "geometry": {
        "type": "Point",
        "coordinates": [
          121.50316533333334,
          31.164726083333335
        ]
      },
      "properties": {
        "station_type": "commercial_center",
        "required": false,
        "layers": "commercial",
        "sources": "large_commercial_center",
        "component_count": 1,
        "population_value": 0.0,
        "job_value": 0.0,
        "transport_value": 0.0,
        "commercial_value": 30000.0,
        "total_value": 30000.0,
        "covered_pop": 0.0,
        "covered_jobs": 0.0,
        "covered_commercial": 30000.0,
        "covered_tourism": 0.0,
        "score": 30000.0,
        "name": "亿丰时代广场",
        "station_id": "S052"
      }
    },
    {
      "type": "Feature",
      "geometry": {
        "type": "Point",
        "coordinates": [
          121.54557015,
          31.173967
        ]
      },
      "properties": {
        "station_type": "commercial_center",
        "required": false,
        "layers": "commercial",
        "sources": "large_commercial_center",
        "component_count": 1,
        "population_value": 0.0,
        "job_value": 0.0,
        "transport_value": 0.0,
        "commercial_value": 30000.0,
        "total_value": 30000.0,
        "covered_pop": 0.0,
        "covered_jobs": 0.0,
        "covered_commercial": 30000.0,
        "covered_tourism": 0.0,
        "score": 30000.0,
        "name": "幕天商业广场",
        "station_id": "S053"
      }
    },
    {
      "type": "Feature",
      "geometry": {
        "type": "Point",
        "coordinates": [
          121.41738204285714,
          31.141011971428572
        ]
      },
      "properties": {
        "station_type": "commercial_center",
        "required": false,
        "layers": "commercial",
        "sources": "large_commercial_center",
        "component_count": 1,
        "population_value": 0.0,
        "job_value": 0.0,
        "transport_value": 0.0,
        "commercial_value": 30000.0,
        "total_value": 30000.0,
        "covered_pop": 0.0,
        "covered_jobs": 0.0,
        "covered_commercial": 30000.0,
        "covered_tourism": 0.0,
        "score": 30000.0,
        "name": "华轻梅陇购物中心",
        "station_id": "S054"
      }
    }
  ]
}