{
  "type": "FeatureCollection",
  "features": [
    {
      "type": "Feature",
      "geometry": {
        "type": "Point",
        "coordinates": [
          121.40431595586317,
          31.216789614233985
        ]
      },
      "properties": {
        "layer": "population",
        "name": "",
        "source": "weighted_kmeans",
        "population_value": 262506.0,
        "job_value": 0.0,
        "transport_value": 0.0,
        "commercial_value": 0.0,
        "value": 262506.0,
        "center_id": "POPULATION_001"
      }
    },
    {
      "type": "Feature",
      "geometry": {
        "type": "Point",
        "coordinates": [
          121.4249395670189,
          31.24924350501186
        ]
      },
      "properties": {
        "layer": "population",
        "name": "",
        "source": "weighted_kmeans",
        "population_value": 229598.0,
        "job_value": 0.0,
        "transport_value": 0.0,
        "commercial_value": 0.0,
        "value": 229598.0,
        "center_id": "POPULATION_002"
      }
    },
    {
      "type": "Feature",
      "geometry": {
        "type": "Point",
        "coordinates": [
          121.40681994046616,
          31.252703222179107
        ]
      },
      "properties": {
        "layer": "population",
        "name": "",
        "source": "weighted_kmeans",
        "population_value": 216504.0,
        "job_value": 0.0,
        "transport_value": 0.0,
        "commercial_value": 0.0,
        "value": 216504.0,
        "center_id": "POPULATION_003"
      }
    },
    {
      "type": "Feature",
      "geometry": {
        "type": "Point",
        "coordinates": [
          121.49412445330736,
          31.220836614879143
        ]
      },
      "properties": {
        "layer": "population",
        "name": "",
        "source": "weighted_kmeans",
        "population_value": 211965.0,
        "job_value": 0.0,
        "transport_value": 0.0,
        "commercial_value": 0.0,
        "value": 211965.0,
        "center_id": "POPULATION_004"
      }
    },
    {
      "type": "Feature",
      "geometry": {
        "type": "Point",
        "coordinates": [
          121.48233012672259,
          31.22234931720442
        ]
      },
      "properties": {
        "layer": "population",
        "name": "",
        "source": "weighted_kmeans",
        "population_value": 196253.0,
        "job_value": 0.0,
        "transport_value": 0.0,
        "commercial_value": 0.0,
        "value": 196253.0,
        "center_id": "POPULATION_005"
      }
    },
    {
      "type": "Feature",
      "geometry": {
        "type": "Point",
        "coordinates": [
          121.43960059311388,
          31.24677828312754
        ]
      },
      "properties": {
        "layer": "population",
        "name": "",
        "source": "weighted_kmeans",
        "population_value": 178060.0,
        "job_value": 0.0,
        "transport_value": 0.0,
        "commercial_value": 0.0,
        "value": 178060.0,
        "center_id": "POPULATION_006"
      }
    },
    {
      "type": "Feature",
      "geometry": {
        "type": "Point",
        "coordinates": [
          121.49272274410515,
          31.149026477756347
        ]
      },
      "properties": {
        "layer": "population",
        "name": "",
        "source": "weighted_kmeans",
        "population_value": 123552.0,
        "job_value": 0.0,
        "transport_value": 0.0,
        "commercial_value": 0.0,
        "value": 123552.0,
        "center_id": "POPULATION_007"
      }
    },
    {
      "type": "Feature",
      "geometry": {
        "type": "Point",
        "coordinates": [
          121.48998946527814,
          31.25464037042888
        ]
      },
      "properties": {
        "layer": "population",
        "name": "",
        "source": "weighted_kmeans",
        "population_value": 109914.0,
        "job_value": 0.0,
        "transport_value": 0.0,
        "commercial_value": 0.0,
        "value": 109914.0,
        "center_id": "POPULATION_008"
      }
    },
    {
      "type": "Feature",
      "geometry": {
        "type": "Point",
        "coordinates": [
          121.46431926143987,
          31.245181951750894
        ]
      },
      "properties": {
        "layer": "population",
        "name": "",
        "source": "weighted_kmeans",
        "population_value": 99783.0,
        "job_value": 0.0,
        "transport_value": 0.0,
        "commercial_value": 0.0,
        "value": 99783.0,
        "center_id": "POPULATION_009"
      }
    },
    {
      "type": "Feature",
      "geometry": {
        "type": "Point",
        "coordinates": [
          121.45134695075895,
          31.213039971524193
        ]
      },
      "properties": {
        "layer": "population",
        "name": "",
        "source": "weighted_kmeans",
        "population_value": 97590.0,
        "job_value": 0.0,
        "transport_value": 0.0,
        "commercial_value": 0.0,
        "value": 97590.0,
        "center_id": "POPULATION_010"
      }
    },
    {
      "type": "Feature",
      "geometry": {
        "type": "Point",
        "coordinates": [
          121.53013330060782,
          31.175674825982604
        ]
      },
      "properties": {
        "layer": "population",
        "name": "",
        "source": "weighted_kmeans",
        "population_value": 93739.0,
        "job_value": 0.0,
        "transport_value": 0.0,
        "commercial_value": 0.0,
        "value": 93739.0,
        "center_id": "POPULATION_011"
      }
    },
    {
      "type": "Feature",
      "geometry": {
        "type": "Point",
        "coordinates": [
          121.50174120832638,
          31.176573222900217
        ]
      },
      "properties": {
        "layer": "population",
        "name": "",
        "source": "weighted_kmeans",
        "population_value": 93226.0,
        "job_value": 0.0,
        "transport_value": 0.0,
        "commercial_value": 0.0,
        "value": 93226.0,
        "center_id": "POPULATION_012"
      }
    },
    {
      "type": "Feature",
      "geometry": {
        "type": "Point",
        "coordinates": [
          121.41826724854495,
          31.201671869512182
        ]
      },
      "properties": {
        "layer": "population",
        "name": "",
        "source": "weighted_kmeans",
        "population_value": 89696.0,
        "job_value": 0.0,
        "transport_value": 0.0,
        "commercial_value": 0.0,
        "value": 89696.0,
        "center_id": "POPULATION_013"
      }
    },
    {
      "type": "Feature",
      "geometry": {
        "type": "Point",
        "coordinates": [
          121.42186133092662,
          31.153536937644688
        ]
      },
      "properties": {
        "layer": "population",
        "name": "",
        "source": "weighted_kmeans",
        "population_value": 84485.0,
        "job_value": 0.0,
        "transport_value": 0.0,
        "commercial_value": 0.0,
        "value": 84485.0,
        "center_id": "POPULATION_014"
      }
    },
    {
      "type": "Feature",
      "geometry": {
        "type": "Point",
        "coordinates": [
          121.4407477182746,
          31.17662849683733
        ]
      },
      "properties": {
        "layer": "population",
        "name": "",
        "source": "weighted_kmeans",
        "population_value": 84442.0,
        "job_value": 0.0,
        "transport_value": 0.0,
        "commercial_value": 0.0,
        "value": 84442.0,
        "center_id": "POPULATION_015"
      }
    },
    {
      "type": "Feature",
      "geometry": {
        "type": "Point",
        "coordinates": [
          121.42717416279115,
          31.229589278959725
        ]
      },
      "properties": {
        "layer": "population",
        "name": "",
        "source": "weighted_kmeans",
        "population_value": 82028.0,
        "job_value": 0.0,
        "transport_value": 0.0,
        "commercial_value": 0.0,
        "value": 82028.0,
        "center_id": "POPULATION_016"
      }
    },
    {
      "type": "Feature",
      "geometry": {
        "type": "Point",
        "coordinates": [
          121.41152641979672,
          31.178535190291427
        ]
      },
      "properties": {
        "layer": "population",
        "name": "",
        "source": "weighted_kmeans",
        "population_value": 80511.0,
        "job_value": 0.0,
        "transport_value": 0.0,
        "commercial_value": 0.0,
        "value": 80511.0,
        "center_id": "POPULATION_017"
      }
    },
    {
      "type": "Feature",
      "geometry": {
        "type": "Point",
        "coordinates": [
          121.46550952203859,
          31.205681189556344
        ]
      },
      "properties": {
        "layer": "population",
        "name": "",
        "source": "weighted_kmeans",
        "population_value": 76912.0,
        "job_value": 0.0,
        "transport_value": 0.0,
        "commercial_value": 0.0,
        "value": 76912.0,
        "center_id": "POPULATION_018"
      }
    },
    {
      "type": "Feature",
      "geometry": {
        "type": "Point",
        "coordinates": [
          121.51831731878814,
          31.219834112382923
        ]
      },
      "properties": {
        "layer": "population",
        "name": "",
        "source": "weighted_kmeans",
        "population_value": 70691.0,
        "job_value": 0.0,
        "transport_value": 0.0,
        "commercial_value": 0.0,
        "value": 70691.0,
        "center_id": "POPULATION_019"
      }
    },
    {
      "type": "Feature",
      "geometry": {
        "type": "Point",
        "coordinates": [
          121.52115181209655,
          31.15093490388808
        ]
      },
      "properties": {
        "layer": "population",
        "name": "",
        "source": "weighted_kmeans",
        "population_value": 70363.0,
        "job_value": 0.0,
        "transport_value": 0.0,
        "commercial_value": 0.0,
        "value": 70363.0,
        "center_id": "POPULATION_020"
      }
    },
    {
      "type": "Feature",
      "geometry": {
        "type": "Point",
        "coordinates": [
          121.51020781452029,
          31.23649434061405
        ]
      },
      "properties": {
        "layer": "population",
        "name": "",
        "source": "weighted_kmeans",
        "population_value": 68981.0,
        "job_value": 0.0,
        "transport_value": 0.0,
        "commercial_value": 0.0,
        "value": 68981.0,
        "center_id": "POPULATION_021"
      }
    },
    {
      "type": "Feature",
      "geometry": {
        "type": "Point",
        "coordinates": [
          121.51530280404802,
          31.19552523574695
        ]
      },
      "properties": {
        "layer": "population",
        "name": "",
        "source": "weighted_kmeans",
        "population_value": 63904.0,
        "job_value": 0.0,
        "transport_value": 0.0,
        "commercial_value": 0.0,
        "value": 63904.0,
        "center_id": "POPULATION_022"
      }
    },
    {
      "type": "Feature",
      "geometry": {
        "type": "Point",
        "coordinates": [
          121.54740384506229,
          31.185876934117132
        ]
      },
      "properties": {
        "layer": "population",
        "name": "",
        "source": "weighted_kmeans",
        "population_value": 59049.0,
        "job_value": 0.0,
        "transport_value": 0.0,
        "commercial_value": 0.0,
        "value": 59049.0,
        "center_id": "POPULATION_023"
      }
    },
    {
      "type": "Feature",
      "geometry": {
        "type": "Point",
        "coordinates": [
          121.54767782437511,
          31.21421167012104
        ]
      },
      "properties": {
        "layer": "population",
        "name": "",
        "source": "weighted_kmeans",
        "population_value": 52204.0,
        "job_value": 0.0,
        "transport_value": 0.0,
        "commercial_value": 0.0,
        "value": 52204.0,
        "center_id": "POPULATION_024"
      }
    },
    {
      "type": "Feature",
      "geometry": {
        "type": "Point",
        "coordinates": [
          121.52534439319945,
          31.236776998292505
        ]
      },
      "properties": {
        "layer": "population",
        "name": "",
        "source": "weighted_kmeans",
        "population_value": 46596.0,
        "job_value": 0.0,
        "transport_value": 0.0,
        "commercial_value": 0.0,
        "value": 46596.0,
        "center_id": "POPULATION_025"
      }
    },
    {
      "type": "Feature",
      "geometry": {
        "type": "Point",
        "coordinates": [
          121.4820413695653,
          31.164281195138116
        ]
      },
      "properties": {
        "layer": "population",
        "name": "",
        "source": "weighted_kmeans",
        "population_value": 44949.0,
        "job_value": 0.0,
        "transport_value": 0.0,
        "commercial_value": 0.0,
        "value": 44949.0,
        "center_id": "POPULATION_026"
      }
    },
    {
      "type": "Feature",
      "geometry": {
        "type": "Point",
        "coordinates": [
          121.44733987618041,
          31.15504080178959
        ]
      },
      "properties": {
        "layer": "population",
        "name": "",
        "source": "weighted_kmeans",
        "population_value": 44256.0,
        "job_value": 0.0,
        "transport_value": 0.0,
        "commercial_value": 0.0,
        "value": 44256.0,
        "center_id": "POPULATION_027"
      }
    },
    {
      "type": "Feature",
      "geometry": {
        "type": "Point",
        "coordinates": [
          121.55404692467394,
          31.247518294784133
        ]
      },
      "properties": {
        "layer": "population",
        "name": "",
        "source": "weighted_kmeans",
        "population_value": 41735.0,
        "job_value": 0.0,
        "transport_value": 0.0,
        "commercial_value": 0.0,
        "value": 41735.0,
        "center_id": "POPULATION_028"
      }
    },
    {
      "type": "Feature",
      "geometry": {
        "type": "Point",
        "coordinates": [
          121.5464940761804,
          31.14968189665262
        ]
      },
      "properties": {
        "layer": "population",
        "name": "",
        "source": "weighted_kmeans",
        "population_value": 26508.0,
        "job_value": 0.0,
        "transport_value": 0.0,
        "commercial_value": 0.0,
        "value": 26508.0,
        "center_id": "POPULATION_029"
      }
    }
  ]
}