{
  "type": "FeatureCollection",
  "features": [
    {
      "type": "Feature",
      "geometry": {
        "type": "Point",
        "coordinates": [
          121.45098161111112,
          31.251416244444442
        ]
      },
      "properties": {
        "layer": "transport",
        "name": "上海站",
        "source": "rail_hub",
        "population_value": 0.0,
        "job_value": 0.0,
        "transport_value": 300000.0,
        "commercial_value": 0.0,
        "value": 300000.0,
        "center_id": "TRANSPORT_001"
      }
    },
    {
      "type": "Feature",
      "geometry": {
        "type": "Point",
        "coordinates": [
          121.42486001681416,
          31.15509310442478
        ]
      },
      "properties": {
        "layer": "transport",
        "name": "上海南站",
        "source": "rail_hub",
        "population_value": 0.0,
        "job_value": 0.0,
        "transport_value": 260000.0,
        "commercial_value": 0.0,
        "value": 260000.0,
        "center_id": "TRANSPORT_002"
      }
    },
    {
      "type": "Feature",
      "geometry": {
        "type": "Point",
        "coordinates": [
          121.55358129032258,
          31.204668051612902
        ]
      },
      "properties": {
        "layer": "transport",
        "name": "龙阳路",
        "source": "rail_hub",
        "population_value": 0.0,
        "job_value": 0.0,
        "transport_value": 220000.0,
        "commercial_value": 0.0,
        "value": 220000.0,
        "center_id": "TRANSPORT_003"
      }
    }
  ]
}