{
  "type": "FeatureCollection",
  "features": [
    {
      "type": "Feature",
      "geometry": {
        "type": "MultiLineString",
        "coordinates": [
          [
            [
              121.43967761517698,
              31.24315950626356
            ],
            [
              121.45098161111112,
              31.251416244444442
            ]
          ]
        ]
      },
      "properties": {
        "network_id": "required_mst",
        "method": "required_mst",
        "station_count": 2,
        "edge_count": 1,
        "length_km": 1.4108176560089931,
        "pair_reward": 134971103.96259347,
        "construction_cost": 28216353.12017986,
        "turn_penalty": 0.0,
        "max_turn_deg": 0.0,
        "penalized_turns": 0,
        "objective_score": 106754750.8424136,
        "objective_reward": 106754750.8424136,
        "reward_per_km": 75668709.12603118,
        "station_ids": "S001,S010"
      }
    },
    {
      "type": "Feature",
      "geometry": {
        "type": "LineString",
        "coordinates": [
          [
            121.43967761517698,
            31.24315950626356
          ],
          [
            121.45098161111112,
            31.251416244444442
          ]
        ]
      },
      "properties": {
        "edge_id": "E001",
        "from_station": "S001",
        "to_station": "S010",
        "length_m": 1410.817656008993
      }
    },
    {
      "type": "Feature",
      "geometry": {
        "type": "Point",
        "coordinates": [
          121.43967761517698,
          31.24315950626356
        ]
      },
      "properties": {
        "station_id": "S001",
        "station_type": "commercial+job+population_center",
        "required": false,
        "population_value": 178060.0,
        "job_value": 306672.05507150746,
        "transport_value": 0.0,
        "commercial_value": 150000.0,
        "total_value": 634732.0550715075,
        "layers": "commercial,job,population",
        "sources": "large_commercial_center,weighted_kmeans",
        "component_count": 7,
        "name": "189购物中心 / 鑫意生活广场 / 亚新生活广场 / 经纬时尚广场 / 半岛休闲广场"
      }
    },
    {
      "type": "Feature",
      "geometry": {
        "type": "Point",
        "coordinates": [
          121.45098161111112,
          31.251416244444442
        ]
      },
      "properties": {
        "station_id": "S010",
        "station_type": "transport_center",
        "required": false,
        "population_value": 0.0,
        "job_value": 0.0,
        "transport_value": 300000.0,
        "commercial_value": 0.0,
        "total_value": 300000.0,
        "layers": "transport",
        "sources": "rail_hub",
        "component_count": 1,
        "name": "上海站"
      }
    }
  ]
}