{
  "type": "FeatureCollection",
  "features": [
    {
      "type": "Feature",
      "geometry": {
        "type": "MultiLineString",
        "coordinates": [
          [
            [
              121.40681994046616,
              31.252703222179107
            ],
            [
              121.4249395670189,
              31.249243505011865
            ]
          ],
          [
            [
              121.4249395670189,
              31.249243505011865
            ],
            [
              121.41862773352618,
              31.23690432914562
            ]
          ],
          [
            [
              121.41862773352618,
              31.23690432914562
            ],
            [
              121.43967761517698,
              31.24315950626356
            ]
          ],
          [
            [
              121.43967761517698,
              31.24315950626356
            ],
            [
              121.45098161111112,
              31.251416244444442
            ]
          ],
          [
            [
              121.45098161111112,
              31.251416244444442
            ],
            [
              121.46582427633116,
              31.24264112529073
            ]
          ],
          [
            [
              121.46582427633116,
              31.24264112529073
            ],
            [
              121.47849286666667,
              31.238097779797975
            ]
          ],
          [
            [
              121.47849286666667,
              31.238097779797975
            ],
            [
              121.49575109140198,
              31.243779607554945
            ]
          ],
          [
            [
              121.49575109140198,
              31.243779607554945
            ],
            [
              121.46877721095018,
              31.225606329193518
            ]
          ],
          [
            [
              121.46877721095018,
              31.225606329193518
            ],
            [
              121.48300772033767,
              31.224200364676
            ]
          ],
          [
            [
              121.48300772033767,
              31.224200364676
            ],
            [
              121.49350610560622,
              31.222853528788384
            ]
          ],
          [
            [
              121.49350610560622,
              31.222853528788384
            ],
            [
              121.51346426696712,
              31.223874244600502
            ]
          ],
          [
            [
              121.51346426696712,
              31.223874244600502
            ],
            [
              121.52978913815677,
              31.22170389560299
            ]
          ],
          [
            [
              121.52978913815677,
              31.22170389560299
            ],
            [
              121.55112056971264,
              31.23259264846889
            ]
          ],
          [
            [
              121.55112056971264,
              31.23259264846889
            ],
            [
              121.56254259461693,
              31.212025504022737
            ]
          ],
          [
            [
              121.56254259461693,
              31.212025504022737
            ],
            [
              121.55358129032257,
              31.204668051612902
            ]
          ],
          [
            [
              121.55358129032257,
              31.204668051612902
            ],
            [
              121.52999306700934,
              31.1923433723342
            ]
          ],
          [
            [
              121.52999306700934,
              31.1923433723342
            ],
            [
              121.5128954739935,
              31.196085264367575
            ]
          ],
          [
            [
              121.5128954739935,
              31.196085264367575
            ],
            [
              121.49095496109314,
              31.190957012689374
            ]
          ],
          [
            [
              121.49095496109314,
              31.190957012689374
            ],
            [
              121.46676612876975,
              31.205621131408616
            ]
          ],
          [
            [
              121.46676612876975,
              31.205621131408616
            ],
            [
              121.4476936527762,
              31.194446789138382
            ]
          ],
          [
            [
              121.4476936527762,
              31.194446789138382
            ],
            [
              121.437725525,
              31.189732175
            ]
          ],
          [
            [
              121.437725525,
              31.189732175
            ],
            [
              121.41012257469616,
              31.174835261686038
            ]
          ],
          [
            [
              121.41012257469616,
              31.174835261686038
            ],
            [
              121.4255695071588,
              31.15323744265303
            ]
          ],
          [
            [
              121.4255695071588,
              31.15323744265303
            ],
            [
              121.45505897715906,
              31.167744876755624
            ]
          ],
          [
            [
              121.45505897715906,
              31.167744876755624
            ],
            [
              121.48246224770458,
              31.15742703250879
            ]
          ],
          [
            [
              121.48246224770458,
              31.15742703250879
            ],
            [
              121.49272274410515,
              31.149026477756347
            ]
          ],
          [
            [
              121.49272274410515,
              31.149026477756347
            ],
            [
              121.52115181209655,
              31.150934903888075
            ]
          ],
          [
            [
              121.52115181209655,
              31.150934903888075
            ],
            [
              121.54325508345487,
              31.154436855231125
            ]
          ],
          [
            [
              121.54325508345487,
              31.154436855231125
            ],
            [
              121.559418775,
              31.15579745
            ]
          ]
        ]
      },
      "properties": {
        "network_id": "greedy_line_network",
        "method": "greedy_line_network",
        "station_count": 30,
        "edge_count": 29,
        "line_count": 1,
        "closed_lines": 0,
        "length_km": 59.044498242139284,
        "pair_reward": 3030598409.254586,
        "turn_penalty": 196183371.54256633,
        "max_turn_deg": 133.247945243933,
        "penalized_turns": 11,
        "objective_score": 2834415037.71202,
        "objective_reward": 2834415037.71202,
        "reward_per_km": 48004727.31749179,
        "length_budget_km": 80.0,
        "station_ids": "S001,S002,S003,S004,S005,S006,S007,S009,S010,S011,S012,S013,S015,S016,S017,S018,S019,S020,S021,S022,S024,S025,S026,S029,S030,S034,S036,S041,S042,S049"
      }
    },
    {
      "type": "Feature",
      "geometry": {
        "type": "LineString",
        "coordinates": [
          [
            121.40681994046616,
            31.252703222179107
          ],
          [
            121.4249395670189,
            31.249243505011865
          ],
          [
            121.41862773352618,
            31.23690432914562
          ],
          [
            121.43967761517698,
            31.24315950626356
          ],
          [
            121.45098161111112,
            31.251416244444442
          ],
          [
            121.46582427633116,
            31.24264112529073
          ],
          [
            121.47849286666667,
            31.238097779797975
          ],
          [
            121.49575109140198,
            31.243779607554945
          ],
          [
            121.46877721095018,
            31.225606329193518
          ],
          [
            121.48300772033767,
            31.224200364676
          ],
          [
            121.49350610560622,
            31.222853528788384
          ],
          [
            121.51346426696712,
            31.223874244600502
          ],
          [
            121.52978913815677,
            31.22170389560299
          ],
          [
            121.55112056971264,
            31.23259264846889
          ],
          [
            121.56254259461693,
            31.212025504022737
          ],
          [
            121.55358129032257,
            31.204668051612902
          ],
          [
            121.52999306700934,
            31.1923433723342
          ],
          [
            121.5128954739935,
            31.196085264367575
          ],
          [
            121.49095496109314,
            31.190957012689374
          ],
          [
            121.46676612876975,
            31.205621131408616
          ],
          [
            121.4476936527762,
            31.194446789138382
          ],
          [
            121.437725525,
            31.189732175
          ],
          [
            121.41012257469616,
            31.174835261686038
          ],
          [
            121.4255695071588,
            31.15323744265303
          ],
          [
            121.45505897715906,
            31.167744876755624
          ],
          [
            121.48246224770458,
            31.15742703250879
          ],
          [
            121.49272274410515,
            31.149026477756347
          ],
          [
            121.52115181209655,
            31.150934903888075
          ],
          [
            121.54325508345487,
            31.154436855231125
          ],
          [
            121.559418775,
            31.15579745
          ]
        ]
      },
      "properties": {
        "line_id": "L01",
        "station_sequence": "S020,S017,S024,S001,S010,S025,S030,S004,S005,S012,S009,S006,S011,S022,S013,S019,S026,S036,S007,S034,S016,S042,S003,S002,S018,S021,S029,S041,S015,S049",
        "closed": false,
        "length_m": 59044.498242139285
      }
    },
    {
      "type": "Feature",
      "geometry": {
        "type": "LineString",
        "coordinates": [
          [
            121.40681994046616,
            31.252703222179107
          ],
          [
            121.4249395670189,
            31.249243505011865
          ]
        ]
      },
      "properties": {
        "edge_id": "E001",
        "from_station": "S020",
        "to_station": "S017",
        "length_m": 1766.3044115818807
      }
    },
    {
      "type": "Feature",
      "geometry": {
        "type": "LineString",
        "coordinates": [
          [
            121.4249395670189,
            31.249243505011865
          ],
          [
            121.41862773352618,
            31.23690432914562
          ]
        ]
      },
      "properties": {
        "edge_id": "E002",
        "from_station": "S017",
        "to_station": "S024",
        "length_m": 1490.4032517559745
      }
    },
    {
      "type": "Feature",
      "geometry": {
        "type": "LineString",
        "coordinates": [
          [
            121.41862773352618,
            31.23690432914562
          ],
          [
            121.43967761517698,
            31.24315950626356
          ]
        ]
      },
      "properties": {
        "edge_id": "E003",
        "from_station": "S024",
        "to_station": "S001",
        "length_m": 2119.463249988861
      }
    },
    {
      "type": "Feature",
      "geometry": {
        "type": "LineString",
        "coordinates": [
          [
            121.43967761517698,
            31.24315950626356
          ],
          [
            121.45098161111112,
            31.251416244444442
          ]
        ]
      },
      "properties": {
        "edge_id": "E004",
        "from_station": "S001",
        "to_station": "S010",
        "length_m": 1410.817656008993
      }
    },
    {
      "type": "Feature",
      "geometry": {
        "type": "LineString",
        "coordinates": [
          [
            121.45098161111112,
            31.251416244444442
          ],
          [
            121.46582427633116,
            31.24264112529073
          ]
        ]
      },
      "properties": {
        "edge_id": "E005",
        "from_station": "S010",
        "to_station": "S025",
        "length_m": 1713.578210277961
      }
    },
    {
      "type": "Feature",
      "geometry": {
        "type": "LineString",
        "coordinates": [
          [
            121.46582427633116,
            31.24264112529073
          ],
          [
            121.47849286666667,
            31.238097779797975
          ]
        ]
      },
      "properties": {
        "edge_id": "E006",
        "from_station": "S025",
        "to_station": "S030",
        "length_m": 1306.1873490832604
      }
    },
    {
      "type": "Feature",
      "geometry": {
        "type": "LineString",
        "coordinates": [
          [
            121.47849286666667,
            31.238097779797975
          ],
          [
            121.49575109140198,
            31.243779607554945
          ]
        ]
      },
      "properties": {
        "edge_id": "E007",
        "from_station": "S030",
        "to_station": "S004",
        "length_m": 1758.5824288652677
      }
    },
    {
      "type": "Feature",
      "geometry": {
        "type": "LineString",
        "coordinates": [
          [
            121.49575109140198,
            31.243779607554945
          ],
          [
            121.46877721095018,
            31.225606329193518
          ]
        ]
      },
      "properties": {
        "edge_id": "E008",
        "from_station": "S004",
        "to_station": "S005",
        "length_m": 3259.9951209842807
      }
    },
    {
      "type": "Feature",
      "geometry": {
        "type": "LineString",
        "coordinates": [
          [
            121.46877721095018,
            31.225606329193518
          ],
          [
            121.48300772033767,
            31.224200364676
          ]
        ]
      },
      "properties": {
        "edge_id": "E009",
        "from_station": "S005",
        "to_station": "S012",
        "length_m": 1363.5461677262665
      }
    },
    {
      "type": "Feature",
      "geometry": {
        "type": "LineString",
        "coordinates": [
          [
            121.48300772033767,
            31.224200364676
          ],
          [
            121.49350610560622,
            31.222853528788384
          ]
        ]
      },
      "properties": {
        "edge_id": "E010",
        "from_station": "S012",
        "to_station": "S009",
        "length_m": 1010.4269711368154
      }
    },
    {
      "type": "Feature",
      "geometry": {
        "type": "LineString",
        "coordinates": [
          [
            121.49350610560622,
            31.222853528788384
          ],
          [
            121.51346426696712,
            31.223874244600502
          ]
        ]
      },
      "properties": {
        "edge_id": "E011",
        "from_station": "S009",
        "to_station": "S006",
        "length_m": 1903.277002864867
      }
    },
    {
      "type": "Feature",
      "geometry": {
        "type": "LineString",
        "coordinates": [
          [
            121.51346426696712,
            31.223874244600502
          ],
          [
            121.52978913815677,
            31.22170389560299
          ]
        ]
      },
      "properties": {
        "edge_id": "E012",
        "from_station": "S006",
        "to_station": "S011",
        "length_m": 1572.4749492436686
      }
    },
    {
      "type": "Feature",
      "geometry": {
        "type": "LineString",
        "coordinates": [
          [
            121.52978913815677,
            31.22170389560299
          ],
          [
            121.55112056971264,
            31.23259264846889
          ]
        ]
      },
      "properties": {
        "edge_id": "E013",
        "from_station": "S011",
        "to_station": "S022",
        "length_m": 2360.5087510919843
      }
    },
    {
      "type": "Feature",
      "geometry": {
        "type": "LineString",
        "coordinates": [
          [
            121.55112056971264,
            31.23259264846889
          ],
          [
            121.56254259461693,
            31.212025504022737
          ]
        ]
      },
      "properties": {
        "edge_id": "E014",
        "from_station": "S022",
        "to_station": "S013",
        "length_m": 2520.133435568625
      }
    },
    {
      "type": "Feature",
      "geometry": {
        "type": "LineString",
        "coordinates": [
          [
            121.56254259461693,
            31.212025504022737
          ],
          [
            121.55358129032257,
            31.204668051612902
          ]
        ]
      },
      "properties": {
        "edge_id": "E015",
        "from_station": "S013",
        "to_station": "S019",
        "length_m": 1178.735211866295
      }
    },
    {
      "type": "Feature",
      "geometry": {
        "type": "LineString",
        "coordinates": [
          [
            121.55358129032257,
            31.204668051612902
          ],
          [
            121.52999306700934,
            31.1923433723342
          ]
        ]
      },
      "properties": {
        "edge_id": "E016",
        "from_station": "S019",
        "to_station": "S026",
        "length_m": 2626.9668110453754
      }
    },
    {
      "type": "Feature",
      "geometry": {
        "type": "LineString",
        "coordinates": [
          [
            121.52999306700934,
            31.1923433723342
          ],
          [
            121.5128954739935,
            31.196085264367575
          ]
        ]
      },
      "properties": {
        "edge_id": "E017",
        "from_station": "S026",
        "to_station": "S036",
        "length_m": 1679.8381969561283
      }
    },
    {
      "type": "Feature",
      "geometry": {
        "type": "LineString",
        "coordinates": [
          [
            121.5128954739935,
            31.196085264367575
          ],
          [
            121.49095496109314,
            31.190957012689374
          ]
        ]
      },
      "properties": {
        "edge_id": "E018",
        "from_station": "S036",
        "to_station": "S007",
        "length_m": 2164.838122055407
      }
    },
    {
      "type": "Feature",
      "geometry": {
        "type": "LineString",
        "coordinates": [
          [
            121.49095496109314,
            31.190957012689374
          ],
          [
            121.46676612876975,
            31.205621131408616
          ]
        ]
      },
      "properties": {
        "edge_id": "E019",
        "from_station": "S007",
        "to_station": "S034",
        "length_m": 2816.4970710019616
      }
    },
    {
      "type": "Feature",
      "geometry": {
        "type": "LineString",
        "coordinates": [
          [
            121.46676612876975,
            31.205621131408616
          ],
          [
            121.4476936527762,
            31.194446789138382
          ]
        ]
      },
      "properties": {
        "edge_id": "E020",
        "from_station": "S034",
        "to_station": "S016",
        "length_m": 2196.323674369783
      }
    },
    {
      "type": "Feature",
      "geometry": {
        "type": "LineString",
        "coordinates": [
          [
            121.4476936527762,
            31.194446789138382
          ],
          [
            121.437725525,
            31.189732175
          ]
        ]
      },
      "properties": {
        "edge_id": "E021",
        "from_station": "S016",
        "to_station": "S042",
        "length_m": 1082.889608620295
      }
    },
    {
      "type": "Feature",
      "geometry": {
        "type": "LineString",
        "coordinates": [
          [
            121.437725525,
            31.189732175
          ],
          [
            121.41012257469616,
            31.174835261686038
          ]
        ]
      },
      "properties": {
        "edge_id": "E022",
        "from_station": "S042",
        "to_station": "S003",
        "length_m": 3101.989560712609
      }
    },
    {
      "type": "Feature",
      "geometry": {
        "type": "LineString",
        "coordinates": [
          [
            121.41012257469616,
            31.174835261686038
          ],
          [
            121.4255695071588,
            31.15323744265303
          ]
        ]
      },
      "properties": {
        "edge_id": "E023",
        "from_station": "S003",
        "to_station": "S002",
        "length_m": 2804.4275365693848
      }
    },
    {
      "type": "Feature",
      "geometry": {
        "type": "LineString",
        "coordinates": [
          [
            121.4255695071588,
            31.15323744265303
          ],
          [
            121.45505897715906,
            31.167744876755624
          ]
        ]
      },
      "properties": {
        "edge_id": "E024",
        "from_station": "S002",
        "to_station": "S018",
        "length_m": 3234.645894424449
      }
    },
    {
      "type": "Feature",
      "geometry": {
        "type": "LineString",
        "coordinates": [
          [
            121.45505897715906,
            31.167744876755624
          ],
          [
            121.48246224770458,
            31.15742703250879
          ]
        ]
      },
      "properties": {
        "edge_id": "E025",
        "from_station": "S018",
        "to_station": "S021",
        "length_m": 2848.6370123683223
      }
    },
    {
      "type": "Feature",
      "geometry": {
        "type": "LineString",
        "coordinates": [
          [
            121.48246224770458,
            31.15742703250879
          ],
          [
            121.49272274410515,
            31.149026477756347
          ]
        ]
      },
      "properties": {
        "edge_id": "E026",
        "from_station": "S021",
        "to_station": "S029",
        "length_m": 1348.2422204774714
      }
    },
    {
      "type": "Feature",
      "geometry": {
        "type": "LineString",
        "coordinates": [
          [
            121.49272274410515,
            31.149026477756347
          ],
          [
            121.52115181209655,
            31.150934903888075
          ]
        ]
      },
      "properties": {
        "edge_id": "E027",
        "from_station": "S029",
        "to_station": "S041",
        "length_m": 2716.6251049701978
      }
    },
    {
      "type": "Feature",
      "geometry": {
        "type": "LineString",
        "coordinates": [
          [
            121.52115181209655,
            31.150934903888075
          ],
          [
            121.54325508345487,
            31.154436855231125
          ]
        ]
      },
      "properties": {
        "edge_id": "E028",
        "from_station": "S041",
        "to_station": "S015",
        "length_m": 2140.992969499498
      }
    },
    {
      "type": "Feature",
      "geometry": {
        "type": "LineString",
        "coordinates": [
          [
            121.54325508345487,
            31.154436855231125
          ],
          [
            121.559418775,
            31.15579745
          ]
        ]
      },
      "properties": {
        "edge_id": "E029",
        "from_station": "S015",
        "to_station": "S049",
        "length_m": 1547.1502910234005
      }
    },
    {
      "type": "Feature",
      "geometry": {
        "type": "Point",
        "coordinates": [
          121.43967761517698,
          31.24315950626356
        ]
      },
      "properties": {
        "station_id": "S001",
        "station_type": "commercial+job+population_center",
        "required": false,
        "population_value": 178060.0,
        "job_value": 306672.05507150746,
        "transport_value": 0.0,
        "commercial_value": 150000.0,
        "total_value": 634732.0550715075,
        "layers": "commercial,job,population",
        "sources": "large_commercial_center,weighted_kmeans",
        "component_count": 7,
        "name": "189购物中心 / 鑫意生活广场 / 亚新生活广场 / 经纬时尚广场 / 半岛休闲广场"
      }
    },
    {
      "type": "Feature",
      "geometry": {
        "type": "Point",
        "coordinates": [
          121.4255695071588,
          31.15323744265303
        ]
      },
      "properties": {
        "station_id": "S002",
        "station_type": "job+population+transport_center",
        "required": false,
        "population_value": 84485.0,
        "job_value": 205150.7474297437,
        "transport_value": 260000.0,
        "commercial_value": 0.0,
        "total_value": 549635.7474297436,
        "layers": "job,population,transport",
        "sources": "rail_hub,weighted_kmeans",
        "component_count": 3,
        "name": "上海南站"
      }
    },
    {
      "type": "Feature",
      "geometry": {
        "type": "Point",
        "coordinates": [
          121.41012257469616,
          31.174835261686038
        ]
      },
      "properties": {
        "station_id": "S003",
        "station_type": "commercial+job+population_center",
        "required": false,
        "population_value": 80511.0,
        "job_value": 364415.8481264839,
        "transport_value": 0.0,
        "commercial_value": 30000.0,
        "total_value": 474926.8481264839,
        "layers": "commercial,job,population",
        "sources": "large_commercial_center,weighted_kmeans",
        "component_count": 3,
        "name": "圣诺亚广场"
      }
    },
    {
      "type": "Feature",
      "geometry": {
        "type": "Point",
        "coordinates": [
          121.49575109140198,
          31.243779607554945
        ]
      },
      "properties": {
        "station_id": "S004",
        "station_type": "commercial+job_center",
        "required": false,
        "population_value": 0.0,
        "job_value": 395777.2632106872,
        "transport_value": 0.0,
        "commercial_value": 60000.0,
        "total_value": 455777.2632106872,
        "layers": "commercial,job",
        "sources": "large_commercial_center,weighted_kmeans",
        "component_count": 3,
        "name": "正大广场 / 白玉兰广场"
      }
    },
    {
      "type": "Feature",
      "geometry": {
        "type": "Point",
        "coordinates": [
          121.46877721095018,
          31.225606329193518
        ]
      },
      "properties": {
        "station_id": "S005",
        "station_type": "commercial+job_center",
        "required": false,
        "population_value": 0.0,
        "job_value": 317749.16127553745,
        "transport_value": 0.0,
        "commercial_value": 90000.0,
        "total_value": 407749.16127553745,
        "layers": "commercial,job",
        "sources": "large_commercial_center,weighted_kmeans",
        "component_count": 4,
        "name": "大上海时代广场 / 上海广场 / 锦江国际购物中心"
      }
    },
    {
      "type": "Feature",
      "geometry": {
        "type": "Point",
        "coordinates": [
          121.51346426696712,
          31.223874244600502
        ]
      },
      "properties": {
        "station_id": "S006",
        "station_type": "commercial+job+population_center",
        "required": false,
        "population_value": 70691.0,
        "job_value": 257701.47752288874,
        "transport_value": 0.0,
        "commercial_value": 60000.0,
        "total_value": 388392.47752288874,
        "layers": "commercial,job,population",
        "sources": "large_commercial_center,weighted_kmeans",
        "component_count": 4,
        "name": "新梅联合广场 / 华润时代广场"
      }
    },
    {
      "type": "Feature",
      "geometry": {
        "type": "Point",
        "coordinates": [
          121.49095496109314,
          31.190957012689374
        ]
      },
      "properties": {
        "station_id": "S007",
        "station_type": "job_center",
        "required": false,
        "population_value": 0.0,
        "job_value": 325443.3034826382,
        "transport_value": 0.0,
        "commercial_value": 0.0,
        "total_value": 325443.3034826382,
        "layers": "job",
        "sources": "weighted_kmeans",
        "component_count": 1,
        "name": ""
      }
    },
    {
      "type": "Feature",
      "geometry": {
        "type": "Point",
        "coordinates": [
          121.49350610560622,
          31.222853528788384
        ]
      },
      "properties": {
        "station_id": "S009",
        "station_type": "commercial+population_center",
        "required": false,
        "population_value": 211965.0,
        "job_value": 0.0,
        "transport_value": 0.0,
        "commercial_value": 90000.0,
        "total_value": 301965.0,
        "layers": "commercial,population",
        "sources": "large_commercial_center,weighted_kmeans",
        "component_count": 4,
        "name": "上海城隍庙广场 / BFC 购物中心 / BFC 购物中心"
      }
    },
    {
      "type": "Feature",
      "geometry": {
        "type": "Point",
        "coordinates": [
          121.45098161111112,
          31.251416244444442
        ]
      },
      "properties": {
        "station_id": "S010",
        "station_type": "transport_center",
        "required": false,
        "population_value": 0.0,
        "job_value": 0.0,
        "transport_value": 300000.0,
        "commercial_value": 0.0,
        "total_value": 300000.0,
        "layers": "transport",
        "sources": "rail_hub",
        "component_count": 1,
        "name": "上海站"
      }
    },
    {
      "type": "Feature",
      "geometry": {
        "type": "Point",
        "coordinates": [
          121.52978913815677,
          31.22170389560299
        ]
      },
      "properties": {
        "station_id": "S011",
        "station_type": "job_center",
        "required": false,
        "population_value": 0.0,
        "job_value": 291757.7628444141,
        "transport_value": 0.0,
        "commercial_value": 0.0,
        "total_value": 291757.7628444141,
        "layers": "job",
        "sources": "weighted_kmeans",
        "component_count": 1,
        "name": ""
      }
    },
    {
      "type": "Feature",
      "geometry": {
        "type": "Point",
        "coordinates": [
          121.48300772033767,
          31.224200364676
        ]
      },
      "properties": {
        "station_id": "S012",
        "station_type": "commercial+population_center",
        "required": false,
        "population_value": 196253.0,
        "job_value": 0.0,
        "transport_value": 0.0,
        "commercial_value": 60000.0,
        "total_value": 256253.0,
        "layers": "commercial,population",
        "sources": "large_commercial_center,weighted_kmeans",
        "component_count": 3,
        "name": "城隍庙第一购物中心 / 豫园鄂尔多斯广场"
      }
    },
    {
      "type": "Feature",
      "geometry": {
        "type": "Point",
        "coordinates": [
          121.56254259461693,
          31.212025504022737
        ]
      },
      "properties": {
        "station_id": "S013",
        "station_type": "job_center",
        "required": false,
        "population_value": 0.0,
        "job_value": 255969.51818443384,
        "transport_value": 0.0,
        "commercial_value": 0.0,
        "total_value": 255969.51818443384,
        "layers": "job",
        "sources": "weighted_kmeans",
        "component_count": 1,
        "name": ""
      }
    },
    {
      "type": "Feature",
      "geometry": {
        "type": "Point",
        "coordinates": [
          121.54325508345487,
          31.154436855231125
        ]
      },
      "properties": {
        "station_id": "S015",
        "station_type": "commercial+job+population_center",
        "required": false,
        "population_value": 26508.0,
        "job_value": 161889.60950905058,
        "transport_value": 0.0,
        "commercial_value": 60000.0,
        "total_value": 248397.60950905058,
        "layers": "commercial,job,population",
        "sources": "large_commercial_center,weighted_kmeans",
        "component_count": 4,
        "name": "长青企业广场 / 御桥九六广场"
      }
    },
    {
      "type": "Feature",
      "geometry": {
        "type": "Point",
        "coordinates": [
          121.4476936527762,
          31.194446789138382
        ]
      },
      "properties": {
        "station_id": "S016",
        "station_type": "commercial+job_center",
        "required": false,
        "population_value": 0.0,
        "job_value": 208774.50796623967,
        "transport_value": 0.0,
        "commercial_value": 30000.0,
        "total_value": 238774.50796623967,
        "layers": "commercial,job",
        "sources": "large_commercial_center,weighted_kmeans",
        "component_count": 2,
        "name": "车享汽车生活广场"
      }
    },
    {
      "type": "Feature",
      "geometry": {
        "type": "Point",
        "coordinates": [
          121.4249395670189,
          31.249243505011865
        ]
      },
      "properties": {
        "station_id": "S017",
        "station_type": "population_center",
        "required": false,
        "population_value": 229598.0,
        "job_value": 0.0,
        "transport_value": 0.0,
        "commercial_value": 0.0,
        "total_value": 229598.0,
        "layers": "population",
        "sources": "weighted_kmeans",
        "component_count": 1,
        "name": ""
      }
    },
    {
      "type": "Feature",
      "geometry": {
        "type": "Point",
        "coordinates": [
          121.45505897715906,
          31.167744876755624
        ]
      },
      "properties": {
        "station_id": "S018",
        "station_type": "job_center",
        "required": false,
        "population_value": 0.0,
        "job_value": 225003.45320588263,
        "transport_value": 0.0,
        "commercial_value": 0.0,
        "total_value": 225003.45320588263,
        "layers": "job",
        "sources": "weighted_kmeans",
        "component_count": 1,
        "name": ""
      }
    },
    {
      "type": "Feature",
      "geometry": {
        "type": "Point",
        "coordinates": [
          121.55358129032257,
          31.204668051612902
        ]
      },
      "properties": {
        "station_id": "S019",
        "station_type": "transport_center",
        "required": false,
        "population_value": 0.0,
        "job_value": 0.0,
        "transport_value": 220000.0,
        "commercial_value": 0.0,
        "total_value": 220000.0,
        "layers": "transport",
        "sources": "rail_hub",
        "component_count": 1,
        "name": "龙阳路"
      }
    },
    {
      "type": "Feature",
      "geometry": {
        "type": "Point",
        "coordinates": [
          121.40681994046616,
          31.252703222179107
        ]
      },
      "properties": {
        "station_id": "S020",
        "station_type": "population_center",
        "required": false,
        "population_value": 216504.0,
        "job_value": 0.0,
        "transport_value": 0.0,
        "commercial_value": 0.0,
        "total_value": 216504.0,
        "layers": "population",
        "sources": "weighted_kmeans",
        "component_count": 1,
        "name": ""
      }
    },
    {
      "type": "Feature",
      "geometry": {
        "type": "Point",
        "coordinates": [
          121.48246224770458,
          31.15742703250879
        ]
      },
      "properties": {
        "station_id": "S021",
        "station_type": "job+population_center",
        "required": false,
        "population_value": 44949.0,
        "job_value": 168755.16453952345,
        "transport_value": 0.0,
        "commercial_value": 0.0,
        "total_value": 213704.16453952345,
        "layers": "job,population",
        "sources": "weighted_kmeans",
        "component_count": 2,
        "name": ""
      }
    },
    {
      "type": "Feature",
      "geometry": {
        "type": "Point",
        "coordinates": [
          121.55112056971264,
          31.23259264846889
        ]
      },
      "properties": {
        "station_id": "S022",
        "station_type": "commercial+job_center",
        "required": false,
        "population_value": 0.0,
        "job_value": 150696.10569065303,
        "transport_value": 0.0,
        "commercial_value": 60000.0,
        "total_value": 210696.10569065303,
        "layers": "commercial,job",
        "sources": "large_commercial_center,weighted_kmeans",
        "component_count": 3,
        "name": "大拇指广场 / 联洋广场"
      }
    },
    {
      "type": "Feature",
      "geometry": {
        "type": "Point",
        "coordinates": [
          121.41862773352618,
          31.23690432914562
        ]
      },
      "properties": {
        "station_id": "S024",
        "station_type": "commercial+job_center",
        "required": false,
        "population_value": 0.0,
        "job_value": 167250.9870459915,
        "transport_value": 0.0,
        "commercial_value": 30000.0,
        "total_value": 197250.9870459915,
        "layers": "commercial,job",
        "sources": "large_commercial_center,weighted_kmeans",
        "component_count": 2,
        "name": "豪浦广场"
      }
    },
    {
      "type": "Feature",
      "geometry": {
        "type": "Point",
        "coordinates": [
          121.46582427633116,
          31.24264112529073
        ]
      },
      "properties": {
        "station_id": "S025",
        "station_type": "commercial+population_center",
        "required": false,
        "population_value": 99783.0,
        "job_value": 0.0,
        "transport_value": 0.0,
        "commercial_value": 60000.0,
        "total_value": 159783.0,
        "layers": "commercial,population",
        "sources": "large_commercial_center,weighted_kmeans",
        "component_count": 3,
        "name": "雅居乐国际广场 / 新金桥广场"
      }
    },
    {
      "type": "Feature",
      "geometry": {
        "type": "Point",
        "coordinates": [
          121.52999306700934,
          31.1923433723342
        ]
      },
      "properties": {
        "station_id": "S026",
        "station_type": "job_center",
        "required": false,
        "population_value": 0.0,
        "job_value": 149164.39526043748,
        "transport_value": 0.0,
        "commercial_value": 0.0,
        "total_value": 149164.39526043748,
        "layers": "job",
        "sources": "weighted_kmeans",
        "component_count": 1,
        "name": ""
      }
    },
    {
      "type": "Feature",
      "geometry": {
        "type": "Point",
        "coordinates": [
          121.49272274410515,
          31.149026477756347
        ]
      },
      "properties": {
        "station_id": "S029",
        "station_type": "population_center",
        "required": false,
        "population_value": 123552.0,
        "job_value": 0.0,
        "transport_value": 0.0,
        "commercial_value": 0.0,
        "total_value": 123552.0,
        "layers": "population",
        "sources": "weighted_kmeans",
        "component_count": 1,
        "name": ""
      }
    },
    {
      "type": "Feature",
      "geometry": {
        "type": "Point",
        "coordinates": [
          121.47849286666667,
          31.238097779797975
        ]
      },
      "properties": {
        "station_id": "S030",
        "station_type": "commercial_center",
        "required": false,
        "population_value": 0.0,
        "job_value": 0.0,
        "transport_value": 0.0,
        "commercial_value": 120000.0,
        "total_value": 120000.0,
        "layers": "commercial",
        "sources": "large_commercial_center",
        "component_count": 4,
        "name": "来福士广场 / 恒基名人购物中心 / 353广场 / 外滩中央广场"
      }
    },
    {
      "type": "Feature",
      "geometry": {
        "type": "Point",
        "coordinates": [
          121.46676612876975,
          31.205621131408616
        ]
      },
      "properties": {
        "station_id": "S034",
        "station_type": "commercial+population_center",
        "required": false,
        "population_value": 76912.0,
        "job_value": 0.0,
        "transport_value": 0.0,
        "commercial_value": 30000.0,
        "total_value": 106912.0,
        "layers": "commercial,population",
        "sources": "large_commercial_center,weighted_kmeans",
        "component_count": 2,
        "name": "东汇广场"
      }
    },
    {
      "type": "Feature",
      "geometry": {
        "type": "Point",
        "coordinates": [
          121.5128954739935,
          31.196085264367575
        ]
      },
      "properties": {
        "station_id": "S036",
        "station_type": "commercial+population_center",
        "required": false,
        "population_value": 63904.0,
        "job_value": 0.0,
        "transport_value": 0.0,
        "commercial_value": 30000.0,
        "total_value": 93904.0,
        "layers": "commercial,population",
        "sources": "large_commercial_center,weighted_kmeans",
        "component_count": 2,
        "name": "百联临沂购物中心"
      }
    },
    {
      "type": "Feature",
      "geometry": {
        "type": "Point",
        "coordinates": [
          121.52115181209655,
          31.150934903888075
        ]
      },
      "properties": {
        "station_id": "S041",
        "station_type": "population_center",
        "required": false,
        "population_value": 70363.0,
        "job_value": 0.0,
        "transport_value": 0.0,
        "commercial_value": 0.0,
        "total_value": 70363.0,
        "layers": "population",
        "sources": "weighted_kmeans",
        "component_count": 1,
        "name": ""
      }
    },
    {
      "type": "Feature",
      "geometry": {
        "type": "Point",
        "coordinates": [
          121.437725525,
          31.189732175
        ]
      },
      "properties": {
        "station_id": "S042",
        "station_type": "commercial_center",
        "required": false,
        "population_value": 0.0,
        "job_value": 0.0,
        "transport_value": 0.0,
        "commercial_value": 60000.0,
        "total_value": 60000.0,
        "layers": "commercial",
        "sources": "large_commercial_center",
        "component_count": 2,
        "name": "腾飞广场 / 腾飞广场"
      }
    },
    {
      "type": "Feature",
      "geometry": {
        "type": "Point",
        "coordinates": [
          121.559418775,
          31.15579745
        ]
      },
      "properties": {
        "station_id": "S049",
        "station_type": "commercial_center",
        "required": false,
        "population_value": 0.0,
        "job_value": 0.0,
        "transport_value": 0.0,
        "commercial_value": 30000.0,
        "total_value": 30000.0,
        "layers": "commercial",
        "sources": "large_commercial_center",
        "component_count": 1,
        "name": "百联东郊购物中心"
      }
    }
  ]
}